{
  "type": "FeatureCollection",
  "features": [
    {
      "geometry": {
        "type": "LineString",
        "coordinates": [
          [
            30.2471222,
            1.5631253
          ],
          [
            30.2484439,
            1.5624923
          ]
        ]
      },
      "type": "Feature",
      "properties": {
        "name": null,
        "type": "residential",
        "slope": 115.59939761129198,
        "sun_diff": 2.176927914412559,
        "length": 162.95381428615894
      }
    },
    {
      "geometry": {
        "type": "LineString",
        "coordinates": [
          [
            30.2443176,
            1.5753658
          ],
          [
            30.2431367,
            1.5748195
          ]
        ]
      },
      "type": "Feature",
      "properties": {
        "name": null,
        "type": "residential",
        "slope": 65.16586382147315,
        "sun_diff": 1.411642348614265,
        "length": 144.6806799451967
      }
    },
    {
      "geometry": {
        "type": "LineString",
        "coordinates": [
          [
            30.2554882,
            1.5673682
          ],
          [
            30.2545945,
            1.5677039
          ]
        ]
      },
      "type": "Feature",
      "properties": {
        "name": null,
        "type": "residential",
        "slope": 110.5947169364793,
        "sun_diff": 2.827745930210938,
        "length": 106.15292459710122
      }
    },
    {
      "geometry": {
        "type": "LineString",
        "coordinates": [
          [
            30.2394463,
            1.5623783
          ],
          [
            30.238563,
            1.5627776
          ]
        ]
      },
      "type": "Feature",
      "properties": {
        "name": "Irumu",
        "type": "residential",
        "slope": 114.33357700864025,
        "sun_diff": 0.9111073117608299,
        "length": 107.78849338753642
      }
    },
    {
      "geometry": {
        "type": "LineString",
        "coordinates": [
          [
            30.2471737,
            1.5503302
          ],
          [
            30.2488117,
            1.5497184
          ]
        ]
      },
      "type": "Feature",
      "properties": {
        "name": "Mvuzi",
        "type": "residential",
        "slope": 110.48774648749097,
        "sun_diff": 2.9347232093884514,
        "length": 194.42580606901527
      }
    },
    {
      "geometry": {
        "type": "LineString",
        "coordinates": [
          [
            30.2609988,
            1.5292256
          ],
          [
            30.2598627,
            1.5287145
          ]
        ]
      },
      "type": "Feature",
      "properties": {
        "name": null,
        "type": "residential",
        "slope": 65.77070398719206,
        "sun_diff": 0.8062830885184269,
        "length": 138.52591695016696
      }
    },
    {
      "geometry": {
        "type": "LineString",
        "coordinates": [
          [
            30.2549779,
            1.5374579
          ],
          [
            30.2541037,
            1.5378696
          ]
        ]
      },
      "type": "Feature",
      "properties": {
        "name": null,
        "type": "residential",
        "slope": 115.22580727158396,
        "sun_diff": 1.8028184803276304,
        "length": 107.44895363703681
      }
    },
    {
      "geometry": {
        "type": "LineString",
        "coordinates": [
          [
            30.273223,
            1.5412113
          ],
          [
            30.2741591,
            1.5408091
          ]
        ]
      },
      "type": "Feature",
      "properties": {
        "name": null,
        "type": "residential",
        "slope": 113.25853411273681,
        "sun_diff": 0.1644546785195189,
        "length": 113.2915203376193
      }
    },
    {
      "geometry": {
        "type": "LineString",
        "coordinates": [
          [
            30.2317939,
            1.5759013
          ],
          [
            30.2328364,
            1.5754434
          ]
        ]
      },
      "type": "Feature",
      "properties": {
        "name": null,
        "type": "residential",
        "slope": 113.72062471841849,
        "sun_diff": 0.298155021539074,
        "length": 126.60950101636998
      }
    },
    {
      "geometry": {
        "type": "LineString",
        "coordinates": [
          [
            30.2630362,
            1.5764538
          ],
          [
            30.2638868,
            1.5760798
          ]
        ]
      },
      "type": "Feature",
      "properties": {
        "name": null,
        "type": "residential",
        "slope": 113.74258344963314,
        "sun_diff": 0.3201205829429057,
        "length": 103.32101406987468
      }
    },
    {
      "geometry": {
        "type": "LineString",
        "coordinates": [
          [
            30.2742617,
            1.5905253
          ],
          [
            30.2753609,
            1.5909941
          ]
        ]
      },
      "type": "Feature",
      "properties": {
        "name": null,
        "type": "residential",
        "slope": 66.89416720582801,
        "sun_diff": 0.31666103574059434,
        "length": 132.87580122785857
      }
    },
    {
      "geometry": {
        "type": "LineString",
        "coordinates": [
          [
            30.269027,
            1.5529957
          ],
          [
            30.27019,
            1.553568
          ]
        ]
      },
      "type": "Feature",
      "properties": {
        "name": null,
        "type": "residential",
        "slope": 63.79034299429375,
        "sun_diff": 2.7871631757936655,
        "length": 144.13182514273979
      }
    },
    {
      "geometry": {
        "type": "LineString",
        "coordinates": [
          [
            30.2673876,
            1.5316509
          ],
          [
            30.2682593,
            1.5320374
          ]
        ]
      },
      "type": "Feature",
      "properties": {
        "name": null,
        "type": "residential",
        "slope": 66.08055735258353,
        "sun_diff": 0.4964297231269654,
        "length": 106.03068793826222
      }
    },
    {
      "geometry": {
        "type": "LineString",
        "coordinates": [
          [
            30.2662665,
            1.5317169
          ],
          [
            30.2671741,
            1.5321064
          ]
        ]
      },
      "type": "Feature",
      "properties": {
        "name": null,
        "type": "residential",
        "slope": 66.76579957306663,
        "sun_diff": 0.18881249735613892,
        "length": 109.82273466545595
      }
    },
    {
      "geometry": {
        "type": "LineString",
        "coordinates": [
          [
            30.2671741,
            1.5321064
          ],
          [
            30.268128,
            1.5325441
          ]
        ]
      },
      "type": "Feature",
      "properties": {
        "name": null,
        "type": "residential",
        "slope": 65.3440573135984,
        "sun_diff": 1.232929762112093,
        "length": 116.70420648219202
      }
    },
    {
      "geometry": {
        "type": "LineString",
        "coordinates": [
          [
            30.2705005,
            1.5720467
          ],
          [
            30.2714275,
            1.572402
          ]
        ]
      },
      "type": "Feature",
      "properties": {
        "name": null,
        "type": "residential",
        "slope": 69.021988698929,
        "sun_diff": 2.4444825288415757,
        "length": 110.3879853140956
      }
    },
    {
      "geometry": {
        "type": "LineString",
        "coordinates": [
          [
            30.2714275,
            1.572402
          ],
          [
            30.2723337,
            1.5727788
          ]
        ]
      },
      "type": "Feature",
      "properties": {
        "name": null,
        "type": "residential",
        "slope": 67.414694202432,
        "sun_diff": 0.837188032344585,
        "length": 109.12764555113161
      }
    },
    {
      "geometry": {
        "type": "LineString",
        "coordinates": [
          [
            30.278384,
            1.5652404
          ],
          [
            30.2774006,
            1.5656591
          ]
        ]
      },
      "type": "Feature",
      "properties": {
        "name": null,
        "type": "service",
        "slope": 113.07045248292718,
        "sun_diff": 0.3520103837630586,
        "length": 118.84758049880244
      }
    },
    {
      "geometry": {
        "type": "LineString",
        "coordinates": [
          [
            30.2321993,
            1.5768774
          ],
          [
            30.2330169,
            1.5764797
          ]
        ]
      },
      "type": "Feature",
      "properties": {
        "name": null,
        "type": "residential",
        "slope": 115.94791871252039,
        "sun_diff": 2.525449015640973,
        "length": 101.09861682452559
      }
    },
    {
      "geometry": {
        "type": "LineString",
        "coordinates": [
          [
            30.2486555,
            1.5624147
          ],
          [
            30.2496086,
            1.561967
          ]
        ]
      },
      "type": "Feature",
      "properties": {
        "name": null,
        "type": "tertiary",
        "slope": 115.16906405389125,
        "sun_diff": 1.7465943570118299,
        "length": 117.09071944539912
      }
    },
    {
      "geometry": {
        "type": "LineString",
        "coordinates": [
          [
            30.2673045,
            1.5534867
          ],
          [
            30.2681471,
            1.5538996
          ]
        ]
      },
      "type": "Feature",
      "properties": {
        "name": null,
        "type": "residential",
        "slope": 63.88539213354531,
        "sun_diff": 2.692114036542108,
        "length": 104.33922961446818
      }
    },
    {
      "geometry": {
        "type": "LineString",
        "coordinates": [
          [
            30.2685494,
            1.5534102
          ],
          [
            30.2677072,
            1.5530108
          ]
        ]
      },
      "type": "Feature",
      "properties": {
        "name": null,
        "type": "tertiary",
        "slope": 64.61994403655888,
        "sun_diff": 1.9575621335285405,
        "length": 103.64687347781846
      }
    },
    {
      "geometry": {
        "type": "LineString",
        "coordinates": [
          [
            30.2707189,
            1.570159
          ],
          [
            30.2716377,
            1.5697077
          ]
        ]
      },
      "type": "Feature",
      "properties": {
        "name": null,
        "type": "residential",
        "slope": 116.16805009546516,
        "sun_diff": 2.745587228774923,
        "length": 113.82630290368807
      }
    },
    {
      "geometry": {
        "type": "LineString",
        "coordinates": [
          [
            30.2716377,
            1.5697077
          ],
          [
            30.2726993,
            1.5691982
          ]
        ]
      },
      "type": "Feature",
      "properties": {
        "name": null,
        "type": "residential",
        "slope": 115.64640725001897,
        "sun_diff": 2.2239443833287282,
        "length": 130.93690451762546
      }
    },
    {
      "geometry": {
        "type": "LineString",
        "coordinates": [
          [
            30.2572287,
            1.5189676
          ],
          [
            30.2558825,
            1.5194934
          ]
        ]
      },
      "type": "Feature",
      "properties": {
        "name": null,
        "type": "residential",
        "slope": 111.34149644967033,
        "sun_diff": 2.0814923415859994,
        "length": 160.7048317375442
      }
    },
    {
      "geometry": {
        "type": "LineString",
        "coordinates": [
          [
            30.2930644,
            1.5760255
          ],
          [
            30.2959236,
            1.5747626
          ]
        ]
      },
      "type": "Feature",
      "properties": {
        "name": null,
        "type": "unclassified",
        "slope": 113.83890305169052,
        "sun_diff": 0.41644018500028324,
        "length": 347.5600741325349
      }
    },
    {
      "geometry": {
        "type": "LineString",
        "coordinates": [
          [
            30.2959236,
            1.5747626
          ],
          [
            30.2988177,
            1.5734757
          ]
        ]
      },
      "type": "Feature",
      "properties": {
        "name": null,
        "type": "unclassified",
        "slope": 113.98098157873065,
        "sun_diff": 0.55851871204041,
        "length": 352.1896606206523
      }
    },
    {
      "geometry": {
        "type": "LineString",
        "coordinates": [
          [
            30.2819339,
            1.6053564
          ],
          [
            30.2827779,
            1.6050364
          ]
        ]
      },
      "type": "Feature",
      "properties": {
        "name": null,
        "type": "residential",
        "slope": 110.77152281095383,
        "sun_diff": 2.650940055736413,
        "length": 100.36463534496656
      }
    },
    {
      "geometry": {
        "type": "LineString",
        "coordinates": [
          [
            30.2827779,
            1.6050364
          ],
          [
            30.2841022,
            1.6045344
          ]
        ]
      },
      "type": "Feature",
      "properties": {
        "name": null,
        "type": "residential",
        "slope": 110.76757281782969,
        "sun_diff": 2.654890048860551,
        "length": 157.47563855225656
      }
    },
    {
      "geometry": {
        "type": "LineString",
        "coordinates": [
          [
            30.2848013,
            1.6042343
          ],
          [
            30.2860647,
            1.6036919
          ]
        ]
      },
      "type": "Feature",
      "properties": {
        "name": null,
        "type": "residential",
        "slope": 113.2428427225993,
        "sun_diff": 0.17962014409093285,
        "length": 152.8804082050926
      }
    },
    {
      "geometry": {
        "type": "LineString",
        "coordinates": [
          [
            30.2861666,
            1.6036487
          ],
          [
            30.2874928,
            1.6030871
          ]
        ]
      },
      "type": "Feature",
      "properties": {
        "name": null,
        "type": "residential",
        "slope": 112.95903846626177,
        "sun_diff": 0.46342440042846533,
        "length": 160.14098778387697
      }
    },
    {
      "geometry": {
        "type": "LineString",
        "coordinates": [
          [
            30.288392,
            1.6027757
          ],
          [
            30.2901125,
            1.6035145
          ]
        ]
      },
      "type": "Feature",
      "properties": {
        "name": null,
        "type": "residential",
        "slope": 66.7526906624984,
        "sun_diff": 0.17518449241097755,
        "length": 208.19981191877514
      }
    },
    {
      "geometry": {
        "type": "LineString",
        "coordinates": [
          [
            30.2901125,
            1.6035145
          ],
          [
            30.2920852,
            1.6043617
          ]
        ]
      },
      "type": "Feature",
      "properties": {
        "name": null,
        "type": "residential",
        "slope": 66.75016089817294,
        "sun_diff": 0.17265472808551863,
        "length": 238.723277387912
      }
    },
    {
      "geometry": {
        "type": "LineString",
        "coordinates": [
          [
            30.2127108,
            1.5075601
          ],
          [
            30.2110377,
            1.5082315
          ]
        ]
      },
      "type": "Feature",
      "properties": {
        "name": null,
        "type": "tertiary",
        "slope": 111.87201097387222,
        "sun_diff": 1.5509778173841084,
        "length": 200.46390887829529
      }
    },
    {
      "geometry": {
        "type": "LineString",
        "coordinates": [
          [
            30.2074906,
            1.5599484
          ],
          [
            30.2084024,
            1.5595496
          ]
        ]
      },
      "type": "Feature",
      "properties": {
        "name": null,
        "type": "unclassified",
        "slope": 113.63123841095265,
        "sun_diff": 0.20876871407322994,
        "length": 110.66137068084063
      }
    },
    {
      "geometry": {
        "type": "LineString",
        "coordinates": [
          [
            30.2028884,
            1.5613868
          ],
          [
            30.2038175,
            1.5609776
          ]
        ]
      },
      "type": "Feature",
      "properties": {
        "name": null,
        "type": "path",
        "slope": 113.77779645965182,
        "sun_diff": 0.3553267627724068,
        "length": 112.88763469047046
      }
    },
    {
      "geometry": {
        "type": "LineString",
        "coordinates": [
          [
            30.2524504,
            1.5128637
          ],
          [
            30.2533489,
            1.5125017
          ]
        ]
      },
      "type": "Feature",
      "properties": {
        "name": "Avenue Babo",
        "type": "residential",
        "slope": 111.95111718524566,
        "sun_diff": 1.4718716060106658,
        "length": 107.71411526535806
      }
    },
    {
      "geometry": {
        "type": "LineString",
        "coordinates": [
          [
            30.2533489,
            1.5125017
          ],
          [
            30.25427,
            1.5121541
          ]
        ]
      },
      "type": "Feature",
      "properties": {
        "name": "Avenue Babo",
        "type": "residential",
        "slope": 110.68183985423931,
        "sun_diff": 2.741148937017016,
        "length": 109.47298774961513
      }
    },
    {
      "geometry": {
        "type": "LineString",
        "coordinates": [
          [
            30.25427,
            1.5121541
          ],
          [
            30.2551675,
            1.5118153
          ]
        ]
      },
      "type": "Feature",
      "properties": {
        "name": "Avenue Babo",
        "type": "residential",
        "slope": 110.68776425384189,
        "sun_diff": 2.735224537414439,
        "length": 106.67230255859752
      }
    },
    {
      "geometry": {
        "type": "LineString",
        "coordinates": [
          [
            30.2368466,
            1.5599135
          ],
          [
            30.2360201,
            1.5595067
          ]
        ]
      },
      "type": "Feature",
      "properties": {
        "name": "Rue Drabho",
        "type": "residential",
        "slope": 63.785361858955156,
        "sun_diff": 2.7921443111322617,
        "length": 102.43309931794136
      }
    },
    {
      "geometry": {
        "type": "LineString",
        "coordinates": [
          [
            30.2535568,
            1.5099491
          ],
          [
            30.2543757,
            1.5095579
          ]
        ]
      },
      "type": "Feature",
      "properties": {
        "name": null,
        "type": "residential",
        "slope": 115.54219596446876,
        "sun_diff": 2.1192071732124305,
        "length": 100.9173474153314
      }
    },
    {
      "geometry": {
        "type": "LineString",
        "coordinates": [
          [
            30.2520186,
            1.5118716
          ],
          [
            30.2529197,
            1.5115335
          ]
        ]
      },
      "type": "Feature",
      "properties": {
        "name": null,
        "type": "residential",
        "slope": 110.57305605121039,
        "sun_diff": 2.8499327400459435,
        "length": 107.01950011314113
      }
    },
    {
      "geometry": {
        "type": "LineString",
        "coordinates": [
          [
            30.2529197,
            1.5115335
          ],
          [
            30.2540195,
            1.5111208
          ]
        ]
      },
      "type": "Feature",
      "properties": {
        "name": null,
        "type": "residential",
        "slope": 110.57516075887176,
        "sun_diff": 2.8478280323845695,
        "length": 130.62000858861566
      }
    },
    {
      "geometry": {
        "type": "LineString",
        "coordinates": [
          [
            30.2547786,
            1.5108607
          ],
          [
            30.2558702,
            1.510405
          ]
        ]
      },
      "type": "Feature",
      "properties": {
        "name": null,
        "type": "residential",
        "slope": 112.6656935016604,
        "sun_diff": 0.7572952895959304,
        "length": 131.5348588767118
      }
    },
    {
      "geometry": {
        "type": "LineString",
        "coordinates": [
          [
            30.2719313,
            1.5616515
          ],
          [
            30.2728515,
            1.5620778
          ]
        ]
      },
      "type": "Feature",
      "properties": {
        "name": null,
        "type": "tertiary",
        "slope": 65.13505607083172,
        "sun_diff": 1.4424500992556943,
        "length": 112.76920558616668
      }
    },
    {
      "geometry": {
        "type": "LineString",
        "coordinates": [
          [
            30.2118886,
            1.5542163
          ],
          [
            30.2128424,
            1.5538243
          ]
        ]
      },
      "type": "Feature",
      "properties": {
        "name": null,
        "type": "residential",
        "slope": 112.34946577233578,
        "sun_diff": 1.0730039245436416,
        "length": 114.66546224263558
      }
    },
    {
      "geometry": {
        "type": "LineString",
        "coordinates": [
          [
            30.2529185,
            1.5164532
          ],
          [
            30.2540787,
            1.5159638
          ]
        ]
      },
      "type": "Feature",
      "properties": {
        "name": null,
        "type": "residential",
        "slope": 112.87835950486573,
        "sun_diff": 0.5446292863906024,
        "length": 140.01861275996853
      }
    },
    {
      "geometry": {
        "type": "LineString",
        "coordinates": [
          [
            30.258059,
            1.5152883
          ],
          [
            30.2590406,
            1.514884
          ]
        ]
      },
      "type": "Feature",
      "properties": {
        "name": null,
        "type": "residential",
        "slope": 112.39276661768704,
        "sun_diff": 1.0302221735692854,
        "length": 118.04642811843472
      }
    },
    {
      "geometry": {
        "type": "LineString",
        "coordinates": [
          [
            30.2590406,
            1.514884
          ],
          [
            30.25989,
            1.5145344
          ]
        ]
      },
      "type": "Feature",
      "properties": {
        "name": null,
        "type": "residential",
        "slope": 112.37836055079006,
        "sun_diff": 1.0446282404662668,
        "length": 102.13760197341634
      }
    },
    {
      "geometry": {
        "type": "LineString",
        "coordinates": [
          [
            30.2562565,
            1.5175103
          ],
          [
            30.2551621,
            1.5179366
          ]
        ]
      },
      "type": "Feature",
      "properties": {
        "name": null,
        "type": "residential",
        "slope": 111.28913405891205,
        "sun_diff": 2.1338547323442754,
        "length": 130.59930615684817
      }
    },
    {
      "geometry": {
        "type": "LineString",
        "coordinates": [
          [
            30.254056,
            1.5177336
          ],
          [
            30.2551353,
            1.5172904
          ]
        ]
      },
      "type": "Feature",
      "properties": {
        "name": null,
        "type": "residential",
        "slope": 112.33190503952909,
        "sun_diff": 1.0910837517272398,
        "length": 129.73889745585822
      }
    },
    {
      "geometry": {
        "type": "LineString",
        "coordinates": [
          [
            30.2536237,
            1.517303
          ],
          [
            30.2549462,
            1.5167843
          ]
        ]
      },
      "type": "Feature",
      "properties": {
        "name": null,
        "type": "residential",
        "slope": 111.42251980570543,
        "sun_diff": 2.0004689855508957,
        "length": 157.9632065700498
      }
    },
    {
      "geometry": {
        "type": "LineString",
        "coordinates": [
          [
            30.2542859,
            1.5164854
          ],
          [
            30.2533512,
            1.516866
          ]
        ]
      },
      "type": "Feature",
      "properties": {
        "name": null,
        "type": "residential",
        "slope": 112.16265063298022,
        "sun_diff": 1.260338158276113,
        "length": 112.22138809647006
      }
    },
    {
      "geometry": {
        "type": "LineString",
        "coordinates": [
          [
            30.2581183,
            1.5180604
          ],
          [
            30.2572025,
            1.5184095
          ]
        ]
      },
      "type": "Feature",
      "properties": {
        "name": null,
        "type": "residential",
        "slope": 110.87338303919532,
        "sun_diff": 2.5496057520610123,
        "length": 108.98092775710928
      }
    },
    {
      "geometry": {
        "type": "LineString",
        "coordinates": [
          [
            30.2572025,
            1.5184095
          ],
          [
            30.2562761,
            1.5187592
          ]
        ]
      },
      "type": "Feature",
      "properties": {
        "name": null,
        "type": "residential",
        "slope": 110.68730791464168,
        "sun_diff": 2.7356808766146514,
        "length": 110.10654129260053
      }
    },
    {
      "geometry": {
        "type": "LineString",
        "coordinates": [
          [
            30.2586319,
            1.5168291
          ],
          [
            30.2577682,
            1.5171889
          ]
        ]
      },
      "type": "Feature",
      "properties": {
        "name": null,
        "type": "residential",
        "slope": 112.6227578290146,
        "sun_diff": 0.8002309622417272,
        "length": 104.04068458624312
      }
    },
    {
      "geometry": {
        "type": "LineString",
        "coordinates": [
          [
            30.2577682,
            1.5171889
          ],
          [
            30.256876,
            1.5175254
          ]
        ]
      },
      "type": "Feature",
      "properties": {
        "name": null,
        "type": "residential",
        "slope": 110.67098532029763,
        "sun_diff": 2.752003470958698,
        "length": 106.03038545485157
      }
    },
    {
      "geometry": {
        "type": "LineString",
        "coordinates": [
          [
            30.256594,
            1.5167953
          ],
          [
            30.2574768,
            1.5164635
          ]
        ]
      },
      "type": "Feature",
      "properties": {
        "name": null,
        "type": "residential",
        "slope": 110.60531950423442,
        "sun_diff": 2.817669287021914,
        "length": 104.86803596062794
      }
    },
    {
      "geometry": {
        "type": "LineString",
        "coordinates": [
          [
            30.2584684,
            1.5163515
          ],
          [
            30.2575735,
            1.5167042
          ]
        ]
      },
      "type": "Feature",
      "properties": {
        "name": null,
        "type": "residential",
        "slope": 111.51735291368101,
        "sun_diff": 1.905635877575321,
        "length": 106.95905974571612
      }
    },
    {
      "geometry": {
        "type": "LineString",
        "coordinates": [
          [
            30.2582784,
            1.5158422
          ],
          [
            30.2591573,
            1.5154672
          ]
        ]
      },
      "type": "Feature",
      "properties": {
        "name": null,
        "type": "residential",
        "slope": 113.11370996180722,
        "sun_diff": 0.3092788294491129,
        "length": 106.25504764750838
      }
    },
    {
      "geometry": {
        "type": "LineString",
        "coordinates": [
          [
            30.259172,
            1.5154068
          ],
          [
            30.2601086,
            1.5150539
          ]
        ]
      },
      "type": "Feature",
      "properties": {
        "name": null,
        "type": "residential",
        "slope": 110.65243709211683,
        "sun_diff": 2.770551699139503,
        "length": 111.29347212595795
      }
    },
    {
      "geometry": {
        "type": "LineString",
        "coordinates": [
          [
            30.257873,
            1.5148143
          ],
          [
            30.2588665,
            1.5144168
          ]
        ]
      },
      "type": "Feature",
      "properties": {
        "name": null,
        "type": "residential",
        "slope": 111.81328530277494,
        "sun_diff": 1.6097034884813866,
        "length": 118.98779397407732
      }
    },
    {
      "geometry": {
        "type": "LineString",
        "coordinates": [
          [
            30.2588665,
            1.5144168
          ],
          [
            30.2597272,
            1.5140327
          ]
        ]
      },
      "type": "Feature",
      "properties": {
        "name": null,
        "type": "residential",
        "slope": 114.05696484070526,
        "sun_diff": 0.6339760494489326,
        "length": 104.80542163556987
      }
    },
    {
      "geometry": {
        "type": "LineString",
        "coordinates": [
          [
            30.2558241,
            1.5146237
          ],
          [
            30.2566463,
            1.514254
          ]
        ]
      },
      "type": "Feature",
      "properties": {
        "name": null,
        "type": "residential",
        "slope": 114.21842329853052,
        "sun_diff": 0.7954345072741944,
        "length": 100.24386206530967
      }
    },
    {
      "geometry": {
        "type": "LineString",
        "coordinates": [
          [
            30.2566463,
            1.514254
          ],
          [
            30.2575471,
            1.5138947
          ]
        ]
      },
      "type": "Feature",
      "properties": {
        "name": null,
        "type": "residential",
        "slope": 111.75234294379646,
        "sun_diff": 1.6706458474598662,
        "length": 107.83963930514014
      }
    },
    {
      "geometry": {
        "type": "LineString",
        "coordinates": [
          [
            30.2575471,
            1.5138947
          ],
          [
            30.2584264,
            1.5135393
          ]
        ]
      },
      "type": "Feature",
      "properties": {
        "name": null,
        "type": "residential",
        "slope": 112.01477442168576,
        "sun_diff": 1.4082143695705724,
        "length": 105.45961566215917
      }
    },
    {
      "geometry": {
        "type": "LineString",
        "coordinates": [
          [
            30.2580026,
            1.5151487
          ],
          [
            30.2570906,
            1.515502
          ]
        ]
      },
      "type": "Feature",
      "properties": {
        "name": null,
        "type": "residential",
        "slope": 111.18263997045776,
        "sun_diff": 2.240348820798573,
        "length": 108.75429748643211
      }
    },
    {
      "geometry": {
        "type": "LineString",
        "coordinates": [
          [
            30.2570906,
            1.515502
          ],
          [
            30.256214,
            1.5158461
          ]
        ]
      },
      "type": "Feature",
      "properties": {
        "name": null,
        "type": "residential",
        "slope": 111.43878317544716,
        "sun_diff": 1.9842056158091737,
        "length": 104.7153567637589
      }
    },
    {
      "geometry": {
        "type": "LineString",
        "coordinates": [
          [
            30.258788,
            1.5172857
          ],
          [
            30.257944,
            1.5176265
          ]
        ]
      },
      "type": "Feature",
      "properties": {
        "name": null,
        "type": "residential",
        "slope": 111.99541580322091,
        "sun_diff": 1.427572988035422,
        "length": 101.21188136338495
      }
    },
    {
      "geometry": {
        "type": "LineString",
        "coordinates": [
          [
            30.257944,
            1.5176265
          ],
          [
            30.257045,
            1.5179849
          ]
        ]
      },
      "type": "Feature",
      "properties": {
        "name": null,
        "type": "residential",
        "slope": 111.74236759662298,
        "sun_diff": 1.6806211946333462,
        "length": 107.61648934607237
      }
    },
    {
      "geometry": {
        "type": "LineString",
        "coordinates": [
          [
            30.2601459,
            1.5122141
          ],
          [
            30.2592824,
            1.5126276
          ]
        ]
      },
      "type": "Feature",
      "properties": {
        "name": null,
        "type": "residential",
        "slope": 115.59591268892052,
        "sun_diff": 2.172923897664191,
        "length": 106.46124972567209
      }
    },
    {
      "geometry": {
        "type": "LineString",
        "coordinates": [
          [
            30.2592824,
            1.5126276
          ],
          [
            30.2582271,
            1.5130744
          ]
        ]
      },
      "type": "Feature",
      "properties": {
        "name": null,
        "type": "residential",
        "slope": 112.95432840024759,
        "sun_diff": 0.4686603910087399,
        "length": 127.43036931053841
      }
    },
    {
      "geometry": {
        "type": "LineString",
        "coordinates": [
          [
            30.2579624,
            1.5240298
          ],
          [
            30.2590424,
            1.5245356
          ]
        ]
      },
      "type": "Feature",
      "properties": {
        "name": null,
        "type": "residential",
        "slope": 64.89694876350734,
        "sun_diff": 1.680038312203152,
        "length": 132.61135426245946
      }
    },
    {
      "geometry": {
        "type": "LineString",
        "coordinates": [
          [
            30.2535791,
            1.5107267
          ],
          [
            30.252724,
            1.5110618
          ]
        ]
      },
      "type": "Feature",
      "properties": {
        "name": null,
        "type": "residential",
        "slope": 111.40618831450857,
        "sun_diff": 2.016800476747761,
        "length": 102.12447539079803
      }
    },
    {
      "geometry": {
        "type": "LineString",
        "coordinates": [
          [
            30.2599986,
            1.5117507
          ],
          [
            30.2591038,
            1.5121507
          ]
        ]
      },
      "type": "Feature",
      "properties": {
        "name": null,
        "type": "residential",
        "slope": 114.0933816900363,
        "sun_diff": 0.6703928987799657,
        "length": 108.98875638143916
      }
    },
    {
      "geometry": {
        "type": "LineString",
        "coordinates": [
          [
            30.2669435,
            1.5325857
          ],
          [
            30.2679871,
            1.533063
          ]
        ]
      },
      "type": "Feature",
      "properties": {
        "name": null,
        "type": "residential",
        "slope": 65.41481983979014,
        "sun_diff": 1.16216723592035,
        "length": 127.60621506390461
      }
    },
    {
      "geometry": {
        "type": "LineString",
        "coordinates": [
          [
            30.2666954,
            1.5330593
          ],
          [
            30.2677815,
            1.5335833
          ]
        ]
      },
      "type": "Feature",
      "properties": {
        "name": null,
        "type": "residential",
        "slope": 64.23650735267304,
        "sun_diff": 2.340479723037447,
        "length": 134.09283924099648
      }
    },
    {
      "geometry": {
        "type": "LineString",
        "coordinates": [
          [
            30.2660546,
            1.5339209
          ],
          [
            30.2671288,
            1.5344062
          ]
        ]
      },
      "type": "Feature",
      "properties": {
        "name": null,
        "type": "residential",
        "slope": 65.67988043090605,
        "sun_diff": 0.8971066448044382,
        "length": 131.0717279358964
      }
    },
    {
      "geometry": {
        "type": "LineString",
        "coordinates": [
          [
            30.2328649,
            1.5210362
          ],
          [
            30.232012,
            1.5213686
          ]
        ]
      },
      "type": "Feature",
      "properties": {
        "name": null,
        "type": "residential",
        "slope": 111.29914863308167,
        "sun_diff": 2.1238401581746587,
        "length": 101.7868766643536
      }
    },
    {
      "geometry": {
        "type": "LineString",
        "coordinates": [
          [
            30.2347925,
            1.5293462
          ],
          [
            30.2336256,
            1.5298515
          ]
        ]
      },
      "type": "Feature",
      "properties": {
        "name": null,
        "type": "residential",
        "slope": 113.4213966423344,
        "sun_diff": 0.0015921489219294926,
        "length": 141.39816535681763
      }
    },
    {
      "geometry": {
        "type": "LineString",
        "coordinates": [
          [
            30.2350232,
            1.5298124
          ],
          [
            30.2338492,
            1.5303026
          ]
        ]
      },
      "type": "Feature",
      "properties": {
        "name": null,
        "type": "residential",
        "slope": 112.67009009420491,
        "sun_diff": 0.7528986970514211,
        "length": 141.46709308278778
      }
    },
    {
      "geometry": {
        "type": "LineString",
        "coordinates": [
          [
            30.2355024,
            1.5307421
          ],
          [
            30.234155,
            1.5312678
          ]
        ]
      },
      "type": "Feature",
      "properties": {
        "name": null,
        "type": "residential",
        "slope": 111.32061226010958,
        "sun_diff": 2.1023765311467457,
        "length": 160.82431035400185
      }
    },
    {
      "geometry": {
        "type": "LineString",
        "coordinates": [
          [
            30.2101323,
            1.5511308
          ],
          [
            30.2089836,
            1.5506639
          ]
        ]
      },
      "type": "Feature",
      "properties": {
        "name": null,
        "type": "residential",
        "slope": 67.87292893328006,
        "sun_diff": 1.2954227631926472,
        "length": 137.87747650571697
      }
    },
    {
      "geometry": {
        "type": "LineString",
        "coordinates": [
          [
            30.2146192,
            1.5387887
          ],
          [
            30.2155263,
            1.5392135
          ]
        ]
      },
      "type": "Feature",
      "properties": {
        "name": null,
        "type": "residential",
        "slope": 64.89810195562464,
        "sun_diff": 1.6788851200858517,
        "length": 111.37944383737305
      }
    },
    {
      "geometry": {
        "type": "LineString",
        "coordinates": [
          [
            30.2188919,
            1.5511546
          ],
          [
            30.2197757,
            1.5515809
          ]
        ]
      },
      "type": "Feature",
      "properties": {
        "name": null,
        "type": "service",
        "slope": 64.24148875035516,
        "sun_diff": 2.336017419732258,
        "length": 109.11083196826115
      }
    },
    {
      "geometry": {
        "type": "LineString",
        "coordinates": [
          [
            30.2657565,
            1.5856202
          ],
          [
            30.2648413,
            1.5859946
          ]
        ]
      },
      "type": "Feature",
      "properties": {
        "name": null,
        "type": "residential",
        "slope": 112.25671819141951,
        "sun_diff": 1.1657446752707301,
        "length": 109.95027827697703
      }
    },
    {
      "geometry": {
        "type": "LineString",
        "coordinates": [
          [
            30.265502,
            1.5851807
          ],
          [
            30.2645842,
            1.5855551
          ]
        ]
      },
      "type": "Feature",
      "properties": {
        "name": null,
        "type": "residential",
        "slope": 112.19979461102577,
        "sun_diff": 1.2226682556644732,
        "length": 110.21790143825405
      }
    },
    {
      "geometry": {
        "type": "LineString",
        "coordinates": [
          [
            30.2643272,
            1.5851242
          ],
          [
            30.2651789,
            1.5847152
          ]
        ]
      },
      "type": "Feature",
      "properties": {
        "name": null,
        "type": "residential",
        "slope": 115.65961929524335,
        "sun_diff": 2.2371564285531065,
        "length": 105.05885730118062
      }
    },
    {
      "geometry": {
        "type": "LineString",
        "coordinates": [
          [
            30.232402,
            1.557389
          ],
          [
            30.2336557,
            1.5578739
          ]
        ]
      },
      "type": "Feature",
      "properties": {
        "name": "Rue Wani",
        "type": "residential",
        "slope": 68.84764088692506,
        "sun_diff": 2.270134716837646,
        "length": 149.46783173105064
      }
    },
    {
      "geometry": {
        "type": "LineString",
        "coordinates": [
          [
            30.2666179,
            1.5307409
          ],
          [
            30.2676218,
            1.5311798
          ]
        ]
      },
      "type": "Feature",
      "properties": {
        "name": null,
        "type": "residential",
        "slope": 66.37778320389344,
        "sun_diff": 0.19920387181704768,
        "length": 121.83242009252457
      }
    },
    {
      "geometry": {
        "type": "LineString",
        "coordinates": [
          [
            30.2691472,
            1.5332412
          ],
          [
            30.268254,
            1.5335952
          ]
        ]
      },
      "type": "Feature",
      "properties": {
        "name": null,
        "type": "residential",
        "slope": 111.62683182895503,
        "sun_diff": 1.7961569623012963,
        "length": 106.83571533076791
      }
    },
    {
      "geometry": {
        "type": "LineString",
        "coordinates": [
          [
            30.2702653,
            1.5339508
          ],
          [
            30.269241,
            1.5343942
          ]
        ]
      },
      "type": "Feature",
      "properties": {
        "name": null,
        "type": "residential",
        "slope": 113.41436134724063,
        "sun_diff": 0.008627444015701258,
        "length": 124.11186022830955
      }
    },
    {
      "geometry": {
        "type": "LineString",
        "coordinates": [
          [
            30.2696675,
            1.5354023
          ],
          [
            30.2706836,
            1.5349122
          ]
        ]
      },
      "type": "Feature",
      "properties": {
        "name": null,
        "type": "residential",
        "slope": 115.75765986936736,
        "sun_diff": 2.334671078111029,
        "length": 125.444185390098
      }
    },
    {
      "geometry": {
        "type": "LineString",
        "coordinates": [
          [
            30.2738535,
            1.5414768
          ],
          [
            30.2728542,
            1.5418861
          ]
        ]
      },
      "type": "Feature",
      "properties": {
        "name": null,
        "type": "residential",
        "slope": 112.28063288429468,
        "sun_diff": 1.1423559069616545,
        "length": 120.07692779358325
      }
    },
    {
      "geometry": {
        "type": "LineString",
        "coordinates": [
          [
            30.2721813,
            1.5737969
          ],
          [
            30.2732984,
            1.5742283
          ]
        ]
      },
      "type": "Feature",
      "properties": {
        "name": null,
        "type": "service",
        "slope": 68.87724159277116,
        "sun_diff": 2.2997354226837388,
        "length": 133.15455296351766
      }
    },
    {
      "geometry": {
        "type": "LineString",
        "coordinates": [
          [
            30.2693481,
            1.5524558
          ],
          [
            30.2702643,
            1.5528698
          ]
        ]
      },
      "type": "Feature",
      "properties": {
        "name": null,
        "type": "service",
        "slope": 65.67548939927502,
        "sun_diff": 0.902016770812395,
        "length": 111.79578527629849
      }
    },
    {
      "geometry": {
        "type": "LineString",
        "coordinates": [
          [
            30.2722373,
            1.5689181
          ],
          [
            30.2714041,
            1.5693046
          ]
        ]
      },
      "type": "Feature",
      "properties": {
        "name": null,
        "type": "residential",
        "slope": 114.8935758149234,
        "sun_diff": 1.4711129482331557,
        "length": 102.13079145655058
      }
    },
    {
      "geometry": {
        "type": "LineString",
        "coordinates": [
          [
            30.231973,
            1.5763867
          ],
          [
            30.2329752,
            1.5758922
          ]
        ]
      },
      "type": "Feature",
      "properties": {
        "name": null,
        "type": "residential",
        "slope": 116.27100084084037,
        "sun_diff": 2.8485311439609546,
        "length": 124.26792968457086
      }
    },
    {
      "geometry": {
        "type": "LineString",
        "coordinates": [
          [
            30.2736907,
            1.5921371
          ],
          [
            30.2727916,
            1.5917325
          ]
        ]
      },
      "type": "Feature",
      "properties": {
        "name": null,
        "type": "residential",
        "slope": 65.7637135300497,
        "sun_diff": 0.8137926400377182,
        "length": 109.63098547357944
      }
    },
    {
      "geometry": {
        "type": "LineString",
        "coordinates": [
          [
            30.2728482,
            1.5981919
          ],
          [
            30.2742548,
            1.5988007
          ]
        ]
      },
      "type": "Feature",
      "properties": {
        "name": null,
        "type": "residential",
        "slope": 66.58809851968772,
        "sun_diff": 0.010592349600301532,
        "length": 170.4257902150677
      }
    },
    {
      "geometry": {
        "type": "LineString",
        "coordinates": [
          [
            30.2897386,
            1.5241935
          ],
          [
            30.2906414,
            1.5237695
          ]
        ]
      },
      "type": "Feature",
      "properties": {
        "name": null,
        "type": "unclassified",
        "slope": 115.16489432905391,
        "sun_diff": 1.741905537797578,
        "length": 110.90943841110324
      }
    },
    {
      "geometry": {
        "type": "LineString",
        "coordinates": [
          [
            30.2917072,
            1.58793
          ],
          [
            30.2925977,
            1.5875895
          ]
        ]
      },
      "type": "Feature",
      "properties": {
        "name": null,
        "type": "path",
        "slope": 110.93266667102543,
        "sun_diff": 2.489796195664809,
        "length": 106.00860726130028
      }
    },
    {
      "geometry": {
        "type": "LineString",
        "coordinates": [
          [
            30.2983348,
            1.5583541
          ],
          [
            30.2992213,
            1.5579716
          ]
        ]
      },
      "type": "Feature",
      "properties": {
        "name": null,
        "type": "residential",
        "slope": 113.34655611118359,
        "sun_diff": 0.07590675550665082,
        "length": 107.35882683975191
      }
    },
    {
      "geometry": {
        "type": "LineString",
        "coordinates": [
          [
            30.2055385,
            1.5578978
          ],
          [
            30.2040143,
            1.5586287
          ]
        ]
      },
      "type": "Feature",
      "properties": {
        "name": null,
        "type": "residential",
        "slope": 115.62739418270806,
        "sun_diff": 2.2049244858286414,
        "length": 187.96467811494017
      }
    },
    {
      "geometry": {
        "type": "LineString",
        "coordinates": [
          [
            30.2542922,
            1.5384732
          ],
          [
            30.2551935,
            1.5380327
          ]
        ]
      },
      "type": "Feature",
      "properties": {
        "name": null,
        "type": "residential",
        "slope": 116.05468568475598,
        "sun_diff": 2.631696893499651,
        "length": 111.55174210792832
      }
    },
    {
      "geometry": {
        "type": "LineString",
        "coordinates": [
          [
            30.2706986,
            1.5159847
          ],
          [
            30.2717087,
            1.5155804
          ]
        ]
      },
      "type": "Feature",
      "properties": {
        "name": null,
        "type": "residential",
        "slope": 111.82103906604894,
        "sun_diff": 1.6019497252073904,
        "length": 120.9824029874307
      }
    },
    {
      "geometry": {
        "type": "LineString",
        "coordinates": [
          [
            30.2036023,
            1.5160516
          ],
          [
            30.2024711,
            1.5165458
          ]
        ]
      },
      "type": "Feature",
      "properties": {
        "name": null,
        "type": "unclassified",
        "slope": 113.60697656992161,
        "sun_diff": 0.18398777866528349,
        "length": 137.26640653734418
      }
    },
    {
      "geometry": {
        "type": "LineString",
        "coordinates": [
          [
            30.2815364,
            1.5429394
          ],
          [
            30.282589,
            1.5424408
          ]
        ]
      },
      "type": "Feature",
      "properties": {
        "name": null,
        "type": "unclassified",
        "slope": 115.35421010301664,
        "sun_diff": 1.9312213117603108,
        "length": 129.51307206323827
      }
    },
    {
      "geometry": {
        "type": "LineString",
        "coordinates": [
          [
            30.2595577,
            1.5135754
          ],
          [
            30.2604925,
            1.5131854
          ]
        ]
      },
      "type": "Feature",
      "properties": {
        "name": null,
        "type": "residential",
        "slope": 112.65307475156658,
        "sun_diff": 0.7699140396897519,
        "length": 112.63038230099241
      }
    },
    {
      "geometry": {
        "type": "LineString",
        "coordinates": [
          [
            30.2603324,
            1.5127369
          ],
          [
            30.2593962,
            1.5131394
          ]
        ]
      },
      "type": "Feature",
      "properties": {
        "name": null,
        "type": "residential",
        "slope": 113.27154760389547,
        "sun_diff": 0.15144118736085943,
        "length": 113.3161644375838
      }
    },
    {
      "geometry": {
        "type": "LineString",
        "coordinates": [
          [
            30.2772264,
            1.5401496
          ],
          [
            30.2782818,
            1.5405998
          ]
        ]
      },
      "type": "Feature",
      "properties": {
        "name": null,
        "type": "residential",
        "slope": 66.89097290055668,
        "sun_diff": 0.31398582484618487,
        "length": 127.58717931461463
      }
    },
    {
      "geometry": {
        "type": "LineString",
        "coordinates": [
          [
            30.2697439,
            1.5116276
          ],
          [
            30.2687514,
            1.5112185
          ]
        ]
      },
      "type": "Feature",
      "properties": {
        "name": null,
        "type": "residential",
        "slope": 67.59193923900605,
        "sun_diff": 1.0149521632955611,
        "length": 119.37058790131411
      }
    },
    {
      "geometry": {
        "type": "LineString",
        "coordinates": [
          [
            30.2588036,
            1.5111304
          ],
          [
            30.2596611,
            1.5107418
          ]
        ]
      },
      "type": "Feature",
      "properties": {
        "name": null,
        "type": "service",
        "slope": 114.386470375523,
        "sun_diff": 0.963481584266674,
        "length": 104.68641928766009
      }
    },
    {
      "geometry": {
        "type": "LineString",
        "coordinates": [
          [
            30.2878639,
            1.5568325
          ],
          [
            30.2864633,
            1.5573971
          ]
        ]
      },
      "type": "Feature",
      "properties": {
        "name": null,
        "type": "residential",
        "slope": 111.96234360257051,
        "sun_diff": 1.4601192641197258,
        "length": 167.91671419223218
      }
    },
    {
      "geometry": {
        "type": "LineString",
        "coordinates": [
          [
            30.2864633,
            1.5573971
          ],
          [
            30.2843709,
            1.5582899
          ]
        ]
      },
      "type": "Feature",
      "properties": {
        "name": null,
        "type": "residential",
        "slope": 113.11496632299927,
        "sun_diff": 0.30749654369097357,
        "length": 252.95908571094287
      }
    },
    {
      "geometry": {
        "type": "LineString",
        "coordinates": [
          [
            30.2870776,
            1.5565472
          ],
          [
            30.2862369,
            1.5569093
          ]
        ]
      },
      "type": "Feature",
      "properties": {
        "name": null,
        "type": "residential",
        "slope": 113.30983599200965,
        "sun_diff": 0.1126268746805863,
        "length": 101.78418801162897
      }
    },
    {
      "geometry": {
        "type": "LineString",
        "coordinates": [
          [
            30.2862369,
            1.5569093
          ],
          [
            30.2849355,
            1.5574577
          ]
        ]
      },
      "type": "Feature",
      "properties": {
        "name": null,
        "type": "residential",
        "slope": 112.85776217722159,
        "sun_diff": 0.5647006894686513,
        "length": 157.03248978830578
      }
    },
    {
      "geometry": {
        "type": "LineString",
        "coordinates": [
          [
            30.280273,
            1.546803
          ],
          [
            30.2811159,
            1.5463879
          ]
        ]
      },
      "type": "Feature",
      "properties": {
        "name": null,
        "type": "residential",
        "slope": 116.22697367833669,
        "sun_diff": 2.803984887080361,
        "length": 104.47737574702856
      }
    }
  ]
}