{
  "type": "FeatureCollection",
  "features": [
    {
      "geometry": {
        "type": "LineString",
        "coordinates": [
          [
            8.8752843,
            45.5778849
          ],
          [
            8.8738662,
            45.5772222
          ]
        ]
      },
      "type": "Feature",
      "properties": {
        "name": "Via Treviso",
        "type": "unclassified",
        "slope": 56.27119452315728,
        "sun_diff": 0.17804269277166895,
        "length": 132.75107421831757
      }
    },
    {
      "geometry": {
        "type": "LineString",
        "coordinates": [
          [
            8.8738662,
            45.5772222
          ],
          [
            8.872517,
            45.5765995
          ]
        ]
      },
      "type": "Feature",
      "properties": {
        "name": "Via Treviso",
        "type": "unclassified",
        "slope": 56.60014720349497,
        "sun_diff": 0.15090998756602403,
        "length": 125.82242087714147
      }
    },
    {
      "geometry": {
        "type": "LineString",
        "coordinates": [
          [
            8.8221848,
            45.6202034
          ],
          [
            8.8233194,
            45.6206757
          ]
        ]
      },
      "type": "Feature",
      "properties": {
        "name": "Via Bottigelli",
        "type": "residential",
        "slope": 59.23986518325839,
        "sun_diff": 2.790627967329442,
        "length": 102.71681972845631
      }
    },
    {
      "geometry": {
        "type": "LineString",
        "coordinates": [
          [
            8.8263249,
            45.5886666
          ],
          [
            8.8282456,
            45.5896185
          ]
        ]
      },
      "type": "Feature",
      "properties": {
        "name": "Via Stefano Ferrario",
        "type": "unclassified",
        "slope": 54.69347526232906,
        "sun_diff": 1.7557619535998867,
        "length": 183.1995387462118
      }
    },
    {
      "geometry": {
        "type": "LineString",
        "coordinates": [
          [
            8.8208044,
            45.5929745
          ],
          [
            8.8239384,
            45.594527
          ]
        ]
      },
      "type": "Feature",
      "properties": {
        "name": "Via Piombina",
        "type": "unclassified",
        "slope": 54.703504575488296,
        "sun_diff": 1.7457326404406501,
        "length": 298.8639754718764
      }
    },
    {
      "geometry": {
        "type": "LineString",
        "coordinates": [
          [
            8.8377763,
            45.587228
          ],
          [
            8.8391876,
            45.5878179
          ]
        ]
      },
      "type": "Feature",
      "properties": {
        "name": "Via Bienate",
        "type": "unclassified",
        "slope": 59.15110673116732,
        "sun_diff": 2.7018695152383714,
        "length": 127.95991798241279
      }
    },
    {
      "geometry": {
        "type": "LineString",
        "coordinates": [
          [
            8.8356234,
            45.6028591
          ],
          [
            8.8369573,
            45.6035141
          ]
        ]
      },
      "type": "Feature",
      "properties": {
        "name": "Via Canale",
        "type": "residential",
        "slope": 54.936170173664834,
        "sun_diff": 1.5130670422641117,
        "length": 126.81856437444092
      }
    },
    {
      "geometry": {
        "type": "LineString",
        "coordinates": [
          [
            8.8526207,
            45.5855196
          ],
          [
            8.8513658,
            45.5850003
          ]
        ]
      },
      "type": "Feature",
      "properties": {
        "name": "Via Certosa",
        "type": "residential",
        "slope": 59.40439861388609,
        "sun_diff": 2.9551613979571414,
        "length": 113.48576343648648
      }
    },
    {
      "geometry": {
        "type": "LineString",
        "coordinates": [
          [
            8.8557095,
            45.5845305
          ],
          [
            8.8543009,
            45.583916
          ]
        ]
      },
      "type": "Feature",
      "properties": {
        "name": "Via Tortona",
        "type": "residential",
        "slope": 58.06332122832697,
        "sun_diff": 1.614084012398024,
        "length": 129.2113923717115
      }
    },
    {
      "geometry": {
        "type": "LineString",
        "coordinates": [
          [
            8.8507305,
            45.5832372
          ],
          [
            8.8522741,
            45.5840104
          ]
        ]
      },
      "type": "Feature",
      "properties": {
        "name": "Via Silvestre",
        "type": "residential",
        "slope": 54.40787660696341,
        "sun_diff": 2.041360608965533,
        "length": 147.7691508862594
      }
    },
    {
      "geometry": {
        "type": "LineString",
        "coordinates": [
          [
            8.8524727,
            45.6417617
          ],
          [
            8.8511832,
            45.6422967
          ]
        ]
      },
      "type": "Feature",
      "properties": {
        "name": "Via Cav. Giannino Landoni",
        "type": "unclassified",
        "slope": 120.68624887103024,
        "sun_diff": 2.8647698177636016,
        "length": 116.60574276985672
      }
    },
    {
      "geometry": {
        "type": "LineString",
        "coordinates": [
          [
            8.8308128,
            45.5998249
          ],
          [
            8.8297742,
            45.5992921
          ]
        ]
      },
      "type": "Feature",
      "properties": {
        "name": "Via Piombina",
        "type": "tertiary",
        "slope": 53.75120320382149,
        "sun_diff": 2.698034012107456,
        "length": 100.22628529626982
      }
    },
    {
      "geometry": {
        "type": "LineString",
        "coordinates": [
          [
            8.8297742,
            45.5992921
          ],
          [
            8.8280836,
            45.5984523
          ]
        ]
      },
      "type": "Feature",
      "properties": {
        "name": "Via Piombina",
        "type": "tertiary",
        "slope": 54.6267702681333,
        "sun_diff": 1.8224669477956468,
        "length": 161.35827884764876
      }
    },
    {
      "geometry": {
        "type": "LineString",
        "coordinates": [
          [
            8.8208918,
            45.5878392
          ],
          [
            8.824144,
            45.589437
          ]
        ]
      },
      "type": "Feature",
      "properties": {
        "name": "Via Marcello Candia",
        "type": "unclassified",
        "slope": 54.928837388762275,
        "sun_diff": 1.5203998271666705,
        "length": 309.30519288784865
      }
    },
    {
      "geometry": {
        "type": "LineString",
        "coordinates": [
          [
            8.8106597,
            45.5973219
          ],
          [
            8.8093454,
            45.597868
          ]
        ]
      },
      "type": "Feature",
      "properties": {
        "name": null,
        "type": "unclassified",
        "slope": 120.70368554554119,
        "sun_diff": 2.847333143252655,
        "length": 118.96404503809926
      }
    },
    {
      "geometry": {
        "type": "LineString",
        "coordinates": [
          [
            8.829193,
            45.5900986
          ],
          [
            8.8316061,
            45.5912732
          ]
        ]
      },
      "type": "Feature",
      "properties": {
        "name": "Via Stefano Ferrario",
        "type": "unclassified",
        "slope": 55.17762144670098,
        "sun_diff": 1.2716157692279637,
        "length": 228.7979816808028
      }
    },
    {
      "geometry": {
        "type": "LineString",
        "coordinates": [
          [
            8.8652758,
            45.611441
          ],
          [
            8.8640707,
            45.6108887
          ]
        ]
      },
      "type": "Feature",
      "properties": {
        "name": "Via Massimo D'Azeglio",
        "type": "residential",
        "slope": 56.76880102145063,
        "sun_diff": 0.31956380552168184,
        "length": 112.09839399428957
      }
    },
    {
      "geometry": {
        "type": "LineString",
        "coordinates": [
          [
            8.8624598,
            45.5740276
          ],
          [
            8.8635552,
            45.5745249
          ]
        ]
      },
      "type": "Feature",
      "properties": {
        "name": "Via Roma",
        "type": "unclassified",
        "slope": 57.03360836056308,
        "sun_diff": 0.5843711446341331,
        "length": 101.65409122972687
      }
    },
    {
      "geometry": {
        "type": "LineString",
        "coordinates": [
          [
            8.8444044,
            45.5841915
          ],
          [
            8.8456908,
            45.584765
          ]
        ]
      },
      "type": "Feature",
      "properties": {
        "name": null,
        "type": "service",
        "slope": 57.50220914298396,
        "sun_diff": 1.0529719270550117,
        "length": 118.73152551130072
      }
    },
    {
      "geometry": {
        "type": "LineString",
        "coordinates": [
          [
            8.8416067,
            45.5899361
          ],
          [
            8.8427706,
            45.5904639
          ]
        ]
      },
      "type": "Feature",
      "properties": {
        "name": null,
        "type": "service",
        "slope": 57.055811690571204,
        "sun_diff": 0.6065744746422581,
        "length": 107.95318830116332
      }
    },
    {
      "geometry": {
        "type": "LineString",
        "coordinates": [
          [
            8.8196324,
            45.5895506
          ],
          [
            8.8220927,
            45.5907704
          ]
        ]
      },
      "type": "Feature",
      "properties": {
        "name": "Via Robert Baden-Powell",
        "type": "unclassified",
        "slope": 54.682418255866764,
        "sun_diff": 1.7668189600621815,
        "length": 234.69511507443752
      }
    },
    {
      "geometry": {
        "type": "LineString",
        "coordinates": [
          [
            8.8271972,
            45.5961343
          ],
          [
            8.8253046,
            45.5952002
          ]
        ]
      },
      "type": "Feature",
      "properties": {
        "name": "Via Piombina",
        "type": "tertiary",
        "slope": 54.802546449414706,
        "sun_diff": 1.64669076651424,
        "length": 180.25664656659873
      }
    },
    {
      "geometry": {
        "type": "LineString",
        "coordinates": [
          [
            8.8315576,
            45.5914338
          ],
          [
            8.8293982,
            45.5903611
          ]
        ]
      },
      "type": "Feature",
      "properties": {
        "name": "Via Stefano Ferrario",
        "type": "unclassified",
        "slope": 54.630035779229075,
        "sun_diff": 1.8192014366998706,
        "length": 206.12370047269619
      }
    },
    {
      "geometry": {
        "type": "LineString",
        "coordinates": [
          [
            8.826923,
            45.5979573
          ],
          [
            8.8203959,
            45.594771
          ]
        ]
      },
      "type": "Feature",
      "properties": {
        "name": null,
        "type": "service",
        "slope": 55.09849439769192,
        "sun_diff": 1.3507428182370234,
        "length": 619.4075971661143
      }
    },
    {
      "geometry": {
        "type": "LineString",
        "coordinates": [
          [
            8.8205342,
            45.5945676
          ],
          [
            8.8271401,
            45.597844
          ]
        ]
      },
      "type": "Feature",
      "properties": {
        "name": null,
        "type": "service",
        "slope": 54.66878195104795,
        "sun_diff": 1.7804552648809988,
        "length": 630.1904017676036
      }
    },
    {
      "geometry": {
        "type": "LineString",
        "coordinates": [
          [
            8.8237513,
            45.590301
          ],
          [
            8.8251601,
            45.5909678
          ]
        ]
      },
      "type": "Feature",
      "properties": {
        "name": null,
        "type": "service",
        "slope": 55.9265817943361,
        "sun_diff": 0.5226554215928445,
        "length": 132.3832653250197
      }
    },
    {
      "geometry": {
        "type": "LineString",
        "coordinates": [
          [
            8.8288651,
            45.5903372
          ],
          [
            8.8304869,
            45.5911751
          ]
        ]
      },
      "type": "Feature",
      "properties": {
        "name": null,
        "type": "service",
        "slope": 53.561257440438624,
        "sun_diff": 2.8879797754903223,
        "length": 156.91200669167202
      }
    },
    {
      "geometry": {
        "type": "LineString",
        "coordinates": [
          [
            8.8298991,
            45.592329
          ],
          [
            8.8278855,
            45.591335
          ]
        ]
      },
      "type": "Feature",
      "properties": {
        "name": null,
        "type": "service",
        "slope": 54.799518011476806,
        "sun_diff": 1.6497192044521398,
        "length": 191.80132505074567
      }
    },
    {
      "geometry": {
        "type": "LineString",
        "coordinates": [
          [
            8.828359,
            45.5908704
          ],
          [
            8.8300515,
            45.5916283
          ]
        ]
      },
      "type": "Feature",
      "properties": {
        "name": null,
        "type": "service",
        "slope": 57.38379097330176,
        "sun_diff": 0.9345537573728109,
        "length": 156.4008759277619
      }
    },
    {
      "geometry": {
        "type": "LineString",
        "coordinates": [
          [
            8.8529843,
            45.583336
          ],
          [
            8.8512511,
            45.5825638
          ]
        ]
      },
      "type": "Feature",
      "properties": {
        "name": "Via Mortara",
        "type": "residential",
        "slope": 57.51974074690432,
        "sun_diff": 1.0705035309753725,
        "length": 159.9437959286056
      }
    },
    {
      "geometry": {
        "type": "LineString",
        "coordinates": [
          [
            8.8654192,
            45.6212073
          ],
          [
            8.866633,
            45.6218344
          ]
        ]
      },
      "type": "Feature",
      "properties": {
        "name": "Via Olgiate Olona",
        "type": "tertiary",
        "slope": 53.546622094426,
        "sun_diff": 2.902615121502947,
        "length": 117.39512047004605
      }
    },
    {
      "geometry": {
        "type": "LineString",
        "coordinates": [
          [
            8.8333408,
            45.6186324
          ],
          [
            8.8344713,
            45.6180476
          ]
        ]
      },
      "type": "Feature",
      "properties": {
        "name": "Via Tommaso Rodari",
        "type": "unclassified",
        "slope": 126.486031012149,
        "sun_diff": 2.935012323355153,
        "length": 109.39128350868923
      }
    },
    {
      "geometry": {
        "type": "LineString",
        "coordinates": [
          [
            8.8222029,
            45.5866313
          ],
          [
            8.8248097,
            45.5879183
          ]
        ]
      },
      "type": "Feature",
      "properties": {
        "name": "Via Stefano Ferrario",
        "type": "unclassified",
        "slope": 54.79757814950821,
        "sun_diff": 1.6516590664207342,
        "length": 248.3297863028538
      }
    },
    {
      "geometry": {
        "type": "LineString",
        "coordinates": [
          [
            8.8242094,
            45.587803
          ],
          [
            8.8220813,
            45.586754
          ]
        ]
      },
      "type": "Feature",
      "properties": {
        "name": "Via Stefano Ferrario",
        "type": "unclassified",
        "slope": 54.84084267927648,
        "sun_diff": 1.6083945366524688,
        "length": 202.62122398542965
      }
    },
    {
      "geometry": {
        "type": "LineString",
        "coordinates": [
          [
            8.8491081,
            45.5824357
          ],
          [
            8.8506507,
            45.5831975
          ]
        ]
      },
      "type": "Feature",
      "properties": {
        "name": "Via Silvestre",
        "type": "residential",
        "slope": 54.79258878816947,
        "sun_diff": 1.6566484277594782,
        "length": 146.97256628902753
      }
    }
  ]
}