{
  "type": "FeatureCollection",
  "features": [
    {
      "geometry": {
        "type": "LineString",
        "coordinates": [
          [
            91.8563712,
            22.6108248
          ],
          [
            91.8547646,
            22.6115361
          ]
        ]
      },
      "type": "Feature",
      "properties": {
        "name": "Gohira-Fatikchhari Road",
        "type": "secondary",
        "slope": 115.62246254308505,
        "sun_diff": 0.5097874040051096,
        "length": 182.95735672889177
      }
    },
    {
      "geometry": {
        "type": "LineString",
        "coordinates": [
          [
            91.8547646,
            22.6115361
          ],
          [
            91.8521776,
            22.6126695
          ]
        ]
      },
      "type": "Feature",
      "properties": {
        "name": "Gohira-Fatikchhari Road",
        "type": "secondary",
        "slope": 115.3889357328606,
        "sun_diff": 0.2762605937806626,
        "length": 294.0295635666113
      }
    },
    {
      "geometry": {
        "type": "LineString",
        "coordinates": [
          [
            91.8521776,
            22.6126695
          ],
          [
            91.850496,
            22.6134062
          ]
        ]
      },
      "type": "Feature",
      "properties": {
        "name": "Gohira-Fatikchhari Road",
        "type": "secondary",
        "slope": 115.38809344627327,
        "sun_diff": 0.27541830719333404,
        "length": 191.12231723604944
      }
    },
    {
      "geometry": {
        "type": "LineString",
        "coordinates": [
          [
            91.9301329,
            22.5297029
          ],
          [
            91.9271155,
            22.5308357
          ]
        ]
      },
      "type": "Feature",
      "properties": {
        "name": null,
        "type": "unclassified",
        "slope": 112.11904276664697,
        "sun_diff": 2.975887540969282,
        "length": 334.6369962784541
      }
    },
    {
      "geometry": {
        "type": "LineString",
        "coordinates": [
          [
            91.901666,
            22.6090674
          ],
          [
            91.9025672,
            22.6094834
          ]
        ]
      },
      "type": "Feature",
      "properties": {
        "name": null,
        "type": "unclassified",
        "slope": 63.43328806941466,
        "sun_diff": 1.4533637905010721,
        "length": 103.46059422303239
      }
    },
    {
      "geometry": {
        "type": "LineString",
        "coordinates": [
          [
            91.688617,
            22.7155425
          ],
          [
            91.6873467,
            22.716068
          ]
        ]
      },
      "type": "Feature",
      "properties": {
        "name": null,
        "type": "unclassified",
        "slope": 114.15478792166499,
        "sun_diff": 0.9757413319053683,
        "length": 142.84193660029626
      }
    },
    {
      "geometry": {
        "type": "LineString",
        "coordinates": [
          [
            91.8855324,
            22.7869471
          ],
          [
            91.8868976,
            22.7875072
          ]
        ]
      },
      "type": "Feature",
      "properties": {
        "name": "Manikchahri-Laksmichhari Road",
        "type": "secondary",
        "slope": 66.01078737123811,
        "sun_diff": 1.1599530233299333,
        "length": 153.23501001791567
      }
    },
    {
      "geometry": {
        "type": "LineString",
        "coordinates": [
          [
            91.8487088,
            22.6914042
          ],
          [
            91.8496422,
            22.6918199
          ]
        ]
      },
      "type": "Feature",
      "properties": {
        "name": null,
        "type": "unclassified",
        "slope": 64.23212106161338,
        "sun_diff": 0.6366903441902707,
        "length": 106.36186262050359
      }
    },
    {
      "geometry": {
        "type": "LineString",
        "coordinates": [
          [
            91.8248312,
            22.7357352
          ],
          [
            91.823769,
            22.7352305
          ]
        ]
      },
      "type": "Feature",
      "properties": {
        "name": null,
        "type": "unclassified",
        "slope": 62.74362305220595,
        "sun_diff": 2.125188353597707,
        "length": 122.57847573513848
      }
    },
    {
      "geometry": {
        "type": "LineString",
        "coordinates": [
          [
            91.823769,
            22.7352305
          ],
          [
            91.8223099,
            22.7346764
          ]
        ]
      },
      "type": "Feature",
      "properties": {
        "name": null,
        "type": "unclassified",
        "slope": 67.62080733123531,
        "sun_diff": 2.7519959254316575,
        "length": 161.87744534420395
      }
    },
    {
      "geometry": {
        "type": "LineString",
        "coordinates": [
          [
            91.8223099,
            22.7346764
          ],
          [
            91.8213872,
            22.7343103
          ]
        ]
      },
      "type": "Feature",
      "properties": {
        "name": null,
        "type": "unclassified",
        "slope": 66.72294213068213,
        "sun_diff": 1.8541307248784733,
        "length": 103.045275237334
      }
    },
    {
      "geometry": {
        "type": "LineString",
        "coordinates": [
          [
            91.8144983,
            22.6066075
          ],
          [
            91.8130982,
            22.6060677
          ]
        ]
      },
      "type": "Feature",
      "properties": {
        "name": null,
        "type": "residential",
        "slope": 67.33308914708431,
        "sun_diff": 2.4464372871685782,
        "length": 155.80160707154693
      }
    },
    {
      "geometry": {
        "type": "LineString",
        "coordinates": [
          [
            91.8160862,
            22.5954248
          ],
          [
            91.8174219,
            22.5960142
          ]
        ]
      },
      "type": "Feature",
      "properties": {
        "name": null,
        "type": "unclassified",
        "slope": 64.45424688138425,
        "sun_diff": 0.43240497853147986,
        "length": 152.02726534928283
      }
    },
    {
      "geometry": {
        "type": "LineString",
        "coordinates": [
          [
            91.639928,
            22.6619674
          ],
          [
            91.6408226,
            22.6623733
          ]
        ]
      },
      "type": "Feature",
      "properties": {
        "name": "Sohosrodhara Rd, Chattogram",
        "type": "unclassified",
        "slope": 63.81736232360561,
        "sun_diff": 1.0514490821980473,
        "length": 102.32268948018334
      }
    },
    {
      "geometry": {
        "type": "LineString",
        "coordinates": [
          [
            91.7310709,
            22.6220564
          ],
          [
            91.7320874,
            22.6215847
          ]
        ]
      },
      "type": "Feature",
      "properties": {
        "name": null,
        "type": "unclassified",
        "slope": 116.68958410192548,
        "sun_diff": 1.5769089628455362,
        "length": 116.81235987777967
      }
    },
    {
      "geometry": {
        "type": "LineString",
        "coordinates": [
          [
            91.8116972,
            22.6414971
          ],
          [
            91.8107459,
            22.6418877
          ]
        ]
      },
      "type": "Feature",
      "properties": {
        "name": null,
        "type": "residential",
        "slope": 113.98349905787566,
        "sun_diff": 1.1291760812042781,
        "length": 106.88623324133005
      }
    },
    {
      "geometry": {
        "type": "LineString",
        "coordinates": [
          [
            91.7341876,
            22.657621
          ],
          [
            91.7358774,
            22.6584527
          ]
        ]
      },
      "type": "Feature",
      "properties": {
        "name": null,
        "type": "living_street",
        "slope": 61.926594913668055,
        "sun_diff": 2.9422164921356,
        "length": 196.57799340384443
      }
    },
    {
      "geometry": {
        "type": "LineString",
        "coordinates": [
          [
            91.7423174,
            22.6752805
          ],
          [
            91.7412177,
            22.6757334
          ]
        ]
      },
      "type": "Feature",
      "properties": {
        "name": null,
        "type": "unclassified",
        "slope": 114.05317105574821,
        "sun_diff": 1.07735819782215,
        "length": 123.59668262932385
      }
    },
    {
      "geometry": {
        "type": "LineString",
        "coordinates": [
          [
            91.8067653,
            22.6824229
          ],
          [
            91.8081722,
            22.681833
          ]
        ]
      },
      "type": "Feature",
      "properties": {
        "name": null,
        "type": "secondary",
        "slope": 114.43878470531675,
        "sun_diff": 0.6917308878752664,
        "length": 158.5957541273079
      }
    },
    {
      "geometry": {
        "type": "LineString",
        "coordinates": [
          [
            91.6959554,
            22.6985152
          ],
          [
            91.6942817,
            22.6978471
          ]
        ]
      },
      "type": "Feature",
      "properties": {
        "name": null,
        "type": "unclassified",
        "slope": 66.60254625992008,
        "sun_diff": 1.7337348541164204,
        "length": 187.1346497337139
      }
    },
    {
      "geometry": {
        "type": "LineString",
        "coordinates": [
          [
            91.6928494,
            22.7057454
          ],
          [
            91.6938848,
            22.7061561
          ]
        ]
      },
      "type": "Feature",
      "properties": {
        "name": null,
        "type": "secondary",
        "slope": 66.73309459358711,
        "sun_diff": 1.8642831877834567,
        "length": 115.64664141343894
      }
    },
    {
      "geometry": {
        "type": "LineString",
        "coordinates": [
          [
            91.6415226,
            22.7801928
          ],
          [
            91.6424292,
            22.7798465
          ]
        ]
      },
      "type": "Feature",
      "properties": {
        "name": null,
        "type": "living_street",
        "slope": 112.50381679239925,
        "sun_diff": 2.644675858688231,
        "length": 100.63841959796936
      }
    },
    {
      "geometry": {
        "type": "LineString",
        "coordinates": [
          [
            91.7296439,
            22.8345061
          ],
          [
            91.7307195,
            22.8340413
          ]
        ]
      },
      "type": "Feature",
      "properties": {
        "name": null,
        "type": "residential",
        "slope": 115.12072404944485,
        "sun_diff": 0.027754941264305444,
        "length": 121.78156202673559
      }
    },
    {
      "geometry": {
        "type": "LineString",
        "coordinates": [
          [
            91.7351183,
            22.8205237
          ],
          [
            91.7360544,
            22.8209588
          ]
        ]
      },
      "type": "Feature",
      "properties": {
        "name": null,
        "type": "unclassified",
        "slope": 63.23934530416415,
        "sun_diff": 1.6114890437440295,
        "length": 107.48385233997328
      }
    },
    {
      "geometry": {
        "type": "LineString",
        "coordinates": [
          [
            91.7395493,
            22.8017184
          ],
          [
            91.7405739,
            22.8021561
          ]
        ]
      },
      "type": "Feature",
      "properties": {
        "name": null,
        "type": "unclassified",
        "slope": 65.13666250999518,
        "sun_diff": 0.28582816208700024,
        "length": 115.79199808476264
      }
    },
    {
      "geometry": {
        "type": "LineString",
        "coordinates": [
          [
            91.6496628,
            22.8145653
          ],
          [
            91.6487171,
            22.8141004
          ]
        ]
      },
      "type": "Feature",
      "properties": {
        "name": null,
        "type": "unclassified",
        "slope": 61.92828453923164,
        "sun_diff": 2.9225498086765356,
        "length": 109.88797091032257
      }
    },
    {
      "geometry": {
        "type": "LineString",
        "coordinates": [
          [
            91.6537964,
            22.8063446
          ],
          [
            91.6527531,
            22.8058946
          ]
        ]
      },
      "type": "Feature",
      "properties": {
        "name": null,
        "type": "residential",
        "slope": 64.9249751343925,
        "sun_diff": 0.0741407864843211,
        "length": 118.10478614951778
      }
    },
    {
      "geometry": {
        "type": "LineString",
        "coordinates": [
          [
            91.6697663,
            22.8141056
          ],
          [
            91.6707601,
            22.8136321
          ]
        ]
      },
      "type": "Feature",
      "properties": {
        "name": null,
        "type": "residential",
        "slope": 117.33398251970596,
        "sun_diff": 2.1855035289968043,
        "length": 114.69936209973638
      }
    },
    {
      "geometry": {
        "type": "LineString",
        "coordinates": [
          [
            91.9460606,
            22.5359462
          ],
          [
            91.944797,
            22.5354508
          ]
        ]
      },
      "type": "Feature",
      "properties": {
        "name": null,
        "type": "residential",
        "slope": 67.00045021477123,
        "sun_diff": 2.0960671837701454,
        "length": 141.02842512005626
      }
    },
    {
      "geometry": {
        "type": "LineString",
        "coordinates": [
          [
            91.8588406,
            22.7266755
          ],
          [
            91.8599027,
            22.7261857
          ]
        ]
      },
      "type": "Feature",
      "properties": {
        "name": null,
        "type": "residential",
        "slope": 116.56410881990814,
        "sun_diff": 1.4335932267161269,
        "length": 121.82564886387694
      }
    },
    {
      "geometry": {
        "type": "LineString",
        "coordinates": [
          [
            91.8713826,
            22.7361848
          ],
          [
            91.8703687,
            22.7357049
          ]
        ]
      },
      "type": "Feature",
      "properties": {
        "name": null,
        "type": "residential",
        "slope": 62.83321349363163,
        "sun_diff": 2.0355979121720225,
        "length": 116.91019653905616
      }
    },
    {
      "geometry": {
        "type": "LineString",
        "coordinates": [
          [
            91.6607191,
            22.6186368
          ],
          [
            91.662248,
            22.6193718
          ]
        ]
      },
      "type": "Feature",
      "properties": {
        "name": "Sitakund",
        "type": "residential",
        "slope": 62.48961692004286,
        "sun_diff": 2.397034939872867,
        "length": 176.99165323604677
      }
    },
    {
      "geometry": {
        "type": "LineString",
        "coordinates": [
          [
            91.6631094,
            22.6177023
          ],
          [
            91.6618941,
            22.6171862
          ]
        ]
      },
      "type": "Feature",
      "properties": {
        "name": "Sitakund",
        "type": "residential",
        "slope": 65.29525680788731,
        "sun_diff": 0.40860494797158253,
        "length": 137.35300404185196
      }
    },
    {
      "geometry": {
        "type": "LineString",
        "coordinates": [
          [
            91.8171644,
            22.5430505
          ],
          [
            91.8183768,
            22.543541
          ]
        ]
      },
      "type": "Feature",
      "properties": {
        "name": null,
        "type": "residential",
        "slope": 66.34461859529918,
        "sun_diff": 1.4402355642980922,
        "length": 135.97609933495286
      }
    }
  ]
}