{
  "type": "FeatureCollection",
  "features": [
    {
      "geometry": {
        "type": "LineString",
        "coordinates": [
          [
            91.1080091,
            23.367075
          ],
          [
            91.1070402,
            23.3674823
          ]
        ]
      },
      "type": "Feature",
      "properties": {
        "name": "Barura-Lalmai Road",
        "type": "secondary",
        "slope": 114.60462406776517,
        "sun_diff": 0.6540122138779338,
        "length": 108.81113182845105
      }
    },
    {
      "geometry": {
        "type": "LineString",
        "coordinates": [
          [
            91.2768784,
            23.3842919
          ],
          [
            91.2779652,
            23.3847568
          ]
        ]
      },
      "type": "Feature",
      "properties": {
        "name": "Birahimpur shal Forest Road",
        "type": "residential",
        "slope": 65.01208472529026,
        "sun_diff": 0.2713803475593579,
        "length": 122.41360592209303
      }
    },
    {
      "geometry": {
        "type": "LineString",
        "coordinates": [
          [
            91.2029915,
            23.3127599
          ],
          [
            91.2039406,
            23.3131303
          ]
        ]
      },
      "type": "Feature",
      "properties": {
        "name": "Katalia Rd",
        "type": "secondary",
        "slope": 66.97644826916442,
        "sun_diff": 2.217111135377735,
        "length": 105.34027323863562
      }
    },
    {
      "geometry": {
        "type": "LineString",
        "coordinates": [
          [
            91.0449106,
            23.3749672
          ],
          [
            91.0438851,
            23.3745528
          ]
        ]
      },
      "type": "Feature",
      "properties": {
        "name": "\u0995\u09cb\u099f\u09ac\u09be\u09a1\u09bc\u09c0 - \u09ac\u09b0\u09c1\u09a1\u09bc\u09be - \u0996\u09be\u099c\u09c1\u09b0\u09c0\u09af\u09bc\u09be \u09ae\u09b9\u09be\u09b8\u09a1\u09bc\u0995",
        "type": "primary",
        "slope": 66.23973604217286,
        "sun_diff": 1.499031664441958,
        "length": 114.40149892501407
      }
    },
    {
      "geometry": {
        "type": "LineString",
        "coordinates": [
          [
            91.0819656,
            23.3820567
          ],
          [
            91.0830465,
            23.3825515
          ]
        ]
      },
      "type": "Feature",
      "properties": {
        "name": null,
        "type": "residential",
        "slope": 63.4934601497485,
        "sun_diff": 1.2472442279824065,
        "length": 123.31751900821472
      }
    },
    {
      "geometry": {
        "type": "LineString",
        "coordinates": [
          [
            91.0830465,
            23.3825515
          ],
          [
            91.0840094,
            23.383002
          ]
        ]
      },
      "type": "Feature",
      "properties": {
        "name": null,
        "type": "residential",
        "slope": 62.99117154341047,
        "sun_diff": 1.7495328343204335,
        "length": 110.34142605727857
      }
    },
    {
      "geometry": {
        "type": "LineString",
        "coordinates": [
          [
            91.0840094,
            23.383002
          ],
          [
            91.0850045,
            23.3834821
          ]
        ]
      },
      "type": "Feature",
      "properties": {
        "name": null,
        "type": "residential",
        "slope": 62.27201508552375,
        "sun_diff": 2.4686892922071593,
        "length": 114.77423623666292
      }
    },
    {
      "geometry": {
        "type": "LineString",
        "coordinates": [
          [
            91.0868744,
            23.384402
          ],
          [
            91.0885316,
            23.3850898
          ]
        ]
      },
      "type": "Feature",
      "properties": {
        "name": null,
        "type": "residential",
        "slope": 65.66844744475418,
        "sun_diff": 0.9277430670232718,
        "length": 185.68212542650247
      }
    },
    {
      "geometry": {
        "type": "LineString",
        "coordinates": [
          [
            91.0888535,
            23.385267
          ],
          [
            91.0898593,
            23.3857249
          ]
        ]
      },
      "type": "Feature",
      "properties": {
        "name": null,
        "type": "residential",
        "slope": 63.61838128993401,
        "sun_diff": 1.1223230877969002,
        "length": 114.62240014931633
      }
    },
    {
      "geometry": {
        "type": "LineString",
        "coordinates": [
          [
            91.105022,
            23.3574978
          ],
          [
            91.1027652,
            23.3563868
          ]
        ]
      },
      "type": "Feature",
      "properties": {
        "name": null,
        "type": "unclassified",
        "slope": 61.79843420183849,
        "sun_diff": 2.9422701758924177,
        "length": 261.49496332375435
      }
    },
    {
      "geometry": {
        "type": "LineString",
        "coordinates": [
          [
            91.1007165,
            23.355219
          ],
          [
            91.099652,
            23.3547755
          ]
        ]
      },
      "type": "Feature",
      "properties": {
        "name": null,
        "type": "unclassified",
        "slope": 65.59102082866494,
        "sun_diff": 0.8503164509340309,
        "length": 119.37254363535023
      }
    },
    {
      "geometry": {
        "type": "LineString",
        "coordinates": [
          [
            91.0734567,
            23.3914356
          ],
          [
            91.0724558,
            23.3910467
          ]
        ]
      },
      "type": "Feature",
      "properties": {
        "name": "\u0995\u09cb\u099f\u09ac\u09be\u09a1\u09bc\u09c0 - \u09ac\u09b0\u09c1\u09a1\u09bc\u09be - \u0996\u09be\u099c\u09c1\u09b0\u09c0\u09af\u09bc\u09be \u09ae\u09b9\u09be\u09b8\u09a1\u09bc\u0995",
        "type": "primary",
        "slope": 67.0550210188002,
        "sun_diff": 2.314316641069297,
        "length": 110.95950321890928
      }
    },
    {
      "geometry": {
        "type": "LineString",
        "coordinates": [
          [
            91.1208213,
            23.3988495
          ],
          [
            91.1199072,
            23.3992043
          ]
        ]
      },
      "type": "Feature",
      "properties": {
        "name": "Majar Road",
        "type": "secondary",
        "slope": 112.92459168235095,
        "sun_diff": 2.334044599292156,
        "length": 101.3156227404077
      }
    },
    {
      "geometry": {
        "type": "LineString",
        "coordinates": [
          [
            91.2426612,
            23.493777
          ],
          [
            91.2416957,
            23.4941976
          ]
        ]
      },
      "type": "Feature",
      "properties": {
        "name": null,
        "type": "secondary",
        "slope": 115.40804909438395,
        "sun_diff": 0.13065711327999452,
        "length": 109.03628194263332
      }
    },
    {
      "geometry": {
        "type": "LineString",
        "coordinates": [
          [
            91.1139404,
            23.61494
          ],
          [
            91.1150293,
            23.6154315
          ]
        ]
      },
      "type": "Feature",
      "properties": {
        "name": null,
        "type": "unclassified",
        "slope": 63.77384473274142,
        "sun_diff": 0.9292116422843719,
        "length": 123.71043276622426
      }
    },
    {
      "geometry": {
        "type": "LineString",
        "coordinates": [
          [
            91.0437816,
            23.4120719
          ],
          [
            91.042124,
            23.4113187
          ]
        ]
      },
      "type": "Feature",
      "properties": {
        "name": null,
        "type": "unclassified",
        "slope": 63.65745952733684,
        "sun_diff": 1.0832448503940668,
        "length": 188.80142641221076
      }
    },
    {
      "geometry": {
        "type": "LineString",
        "coordinates": [
          [
            91.2177228,
            23.4522342
          ],
          [
            91.2208155,
            23.4533969
          ]
        ]
      },
      "type": "Feature",
      "properties": {
        "name": null,
        "type": "tertiary",
        "slope": 67.71587085137142,
        "sun_diff": 2.993935833479725,
        "length": 341.0534314117644
      }
    },
    {
      "geometry": {
        "type": "LineString",
        "coordinates": [
          [
            91.1442572,
            23.3716472
          ],
          [
            91.1452496,
            23.3712409
          ]
        ]
      },
      "type": "Feature",
      "properties": {
        "name": "\u09b2\u09be\u09b2\u09ae\u09be\u0987 - \u0995\u09cb\u099f\u09ac\u09be\u09a1\u09bc\u09c0 - \u09aa\u09b2\u09bf\u099f\u09c7\u0995\u09a8\u09bf\u0995 \u09b2\u09bf\u0982\u0995 \u09b0\u09cb\u09a1",
        "type": "secondary",
        "slope": 114.03708532026633,
        "sun_diff": 1.2215509613767779,
        "length": 110.94901161572376
      }
    },
    {
      "geometry": {
        "type": "LineString",
        "coordinates": [
          [
            91.1452496,
            23.3712409
          ],
          [
            91.1464941,
            23.3707571
          ]
        ]
      },
      "type": "Feature",
      "properties": {
        "name": "\u09b2\u09be\u09b2\u09ae\u09be\u0987 - \u0995\u09cb\u099f\u09ac\u09be\u09a1\u09bc\u09c0 - \u09aa\u09b2\u09bf\u099f\u09c7\u0995\u09a8\u09bf\u0995 \u09b2\u09bf\u0982\u0995 \u09b0\u09cb\u09a1",
        "type": "secondary",
        "slope": 112.95242617357056,
        "sun_diff": 2.3062101080725483,
        "length": 137.99361016044966
      }
    },
    {
      "geometry": {
        "type": "LineString",
        "coordinates": [
          [
            91.2293878,
            23.5005732
          ],
          [
            91.2302783,
            23.5009741
          ]
        ]
      },
      "type": "Feature",
      "properties": {
        "name": null,
        "type": "unclassified",
        "slope": 63.8528204730157,
        "sun_diff": 0.8691145448759983,
        "length": 101.18963312779576
      }
    },
    {
      "geometry": {
        "type": "LineString",
        "coordinates": [
          [
            91.2302783,
            23.5009741
          ],
          [
            91.23163,
            23.5016368
          ]
        ]
      },
      "type": "Feature",
      "properties": {
        "name": null,
        "type": "unclassified",
        "slope": 61.870200174105605,
        "sun_diff": 2.8517348437860903,
        "length": 156.34517214561026
      }
    },
    {
      "geometry": {
        "type": "LineString",
        "coordinates": [
          [
            91.23163,
            23.5016368
          ],
          [
            91.2332993,
            23.5023732
          ]
        ]
      },
      "type": "Feature",
      "properties": {
        "name": null,
        "type": "unclassified",
        "slope": 64.31016013398173,
        "sun_diff": 0.4117748839099704,
        "length": 188.9503319341473
      }
    },
    {
      "geometry": {
        "type": "LineString",
        "coordinates": [
          [
            91.2335708,
            23.5024822
          ],
          [
            91.2347399,
            23.5030295
          ]
        ]
      },
      "type": "Feature",
      "properties": {
        "name": null,
        "type": "unclassified",
        "slope": 62.95620980497475,
        "sun_diff": 1.7657252129169478,
        "length": 133.890530503481
      }
    },
    {
      "geometry": {
        "type": "LineString",
        "coordinates": [
          [
            91.2143406,
            23.5443836
          ],
          [
            91.2125435,
            23.5436312
          ]
        ]
      },
      "type": "Feature",
      "properties": {
        "name": null,
        "type": "unclassified",
        "slope": 65.45423402981223,
        "sun_diff": 0.7322990119205315,
        "length": 201.45668729233805
      }
    },
    {
      "geometry": {
        "type": "LineString",
        "coordinates": [
          [
            91.2125435,
            23.5436312
          ],
          [
            91.2095529,
            23.5423206
          ]
        ]
      },
      "type": "Feature",
      "properties": {
        "name": null,
        "type": "unclassified",
        "slope": 64.45087732314391,
        "sun_diff": 0.27105769474778185,
        "length": 338.00689826686585
      }
    },
    {
      "geometry": {
        "type": "LineString",
        "coordinates": [
          [
            91.155855,
            23.5002559
          ],
          [
            91.1570165,
            23.4997689
          ]
        ]
      },
      "type": "Feature",
      "properties": {
        "name": null,
        "type": "tertiary",
        "slope": 114.57012769316265,
        "sun_diff": 0.7072642879413138,
        "length": 130.27410972946387
      }
    },
    {
      "geometry": {
        "type": "LineString",
        "coordinates": [
          [
            91.1600286,
            23.4992043
          ],
          [
            91.1610693,
            23.4987849
          ]
        ]
      },
      "type": "Feature",
      "properties": {
        "name": null,
        "type": "tertiary",
        "slope": 113.72268017771893,
        "sun_diff": 1.5547118033850325,
        "length": 115.95462733939132
      }
    },
    {
      "geometry": {
        "type": "LineString",
        "coordinates": [
          [
            91.259442,
            23.4637483
          ],
          [
            91.2579614,
            23.4644175
          ]
        ]
      },
      "type": "Feature",
      "properties": {
        "name": null,
        "type": "residential",
        "slope": 116.23054861817761,
        "sun_diff": 0.9531566370736471,
        "length": 168.41135674084993
      }
    },
    {
      "geometry": {
        "type": "LineString",
        "coordinates": [
          [
            91.2614912,
            23.4742551
          ],
          [
            91.2637174,
            23.4733706
          ]
        ]
      },
      "type": "Feature",
      "properties": {
        "name": null,
        "type": "residential",
        "slope": 113.42032228820756,
        "sun_diff": 1.8570696928964026,
        "length": 247.51974239238882
      }
    },
    {
      "geometry": {
        "type": "LineString",
        "coordinates": [
          [
            91.2729764,
            23.4269795
          ],
          [
            91.2716299,
            23.4275111
          ]
        ]
      },
      "type": "Feature",
      "properties": {
        "name": null,
        "type": "unclassified",
        "slope": 113.28081993470295,
        "sun_diff": 1.977816346940159,
        "length": 149.60574591324848
      }
    },
    {
      "geometry": {
        "type": "LineString",
        "coordinates": [
          [
            91.162569,
            23.4235357
          ],
          [
            91.1601966,
            23.4246568
          ]
        ]
      },
      "type": "Feature",
      "properties": {
        "name": "\u0995\u09c1\u09ae\u09bf\u09b2\u09cd\u09b2\u09be \u09b6\u09b9\u09b0 \u09ac\u09be\u0987\u09aa\u09be\u09b8 \u09b8\u09a1\u09bc\u0995",
        "type": "trunk",
        "slope": 117.24865809706245,
        "sun_diff": 1.9900218154193396,
        "length": 272.3585043210199
      }
    },
    {
      "geometry": {
        "type": "LineString",
        "coordinates": [
          [
            91.1597681,
            23.42486
          ],
          [
            91.1586034,
            23.4254124
          ]
        ]
      },
      "type": "Feature",
      "properties": {
        "name": "\u0995\u09c1\u09ae\u09bf\u09b2\u09cd\u09b2\u09be \u09b6\u09b9\u09b0 \u09ac\u09be\u0987\u09aa\u09be\u09b8 \u09b8\u09a1\u09bc\u0995",
        "type": "trunk",
        "slope": 117.33389819340792,
        "sun_diff": 2.0752619117648123,
        "length": 133.81267027054102
      }
    },
    {
      "geometry": {
        "type": "LineString",
        "coordinates": [
          [
            91.2232697,
            23.4215994
          ],
          [
            91.2222236,
            23.4220178
          ]
        ]
      },
      "type": "Feature",
      "properties": {
        "name": null,
        "type": "residential",
        "slope": 113.55128925964016,
        "sun_diff": 1.7073470220029492,
        "length": 116.47181676821614
      }
    },
    {
      "geometry": {
        "type": "LineString",
        "coordinates": [
          [
            91.1329436,
            23.4098392
          ],
          [
            91.1339199,
            23.4103168
          ]
        ]
      },
      "type": "Feature",
      "properties": {
        "name": null,
        "type": "residential",
        "slope": 61.939039004974006,
        "sun_diff": 2.8016653727569008,
        "length": 112.9299141839293
      }
    },
    {
      "geometry": {
        "type": "LineString",
        "coordinates": [
          [
            91.2384618,
            23.3952619
          ],
          [
            91.2393415,
            23.3956754
          ]
        ]
      },
      "type": "Feature",
      "properties": {
        "name": null,
        "type": "unclassified",
        "slope": 62.88058518472312,
        "sun_diff": 1.8601191930077903,
        "length": 100.89709959161826
      }
    },
    {
      "geometry": {
        "type": "LineString",
        "coordinates": [
          [
            91.1815345,
            23.3165774
          ],
          [
            91.1825135,
            23.3161291
          ]
        ]
      },
      "type": "Feature",
      "properties": {
        "name": null,
        "type": "residential",
        "slope": 116.50256345844832,
        "sun_diff": 1.2625735932393383,
        "length": 111.74369586618893
      }
    },
    {
      "geometry": {
        "type": "LineString",
        "coordinates": [
          [
            91.1825135,
            23.3161291
          ],
          [
            91.1836964,
            23.3155872
          ]
        ]
      },
      "type": "Feature",
      "properties": {
        "name": null,
        "type": "residential",
        "slope": 116.51222192492341,
        "sun_diff": 1.272232059714426,
        "length": 135.0288385977504
      }
    },
    {
      "geometry": {
        "type": "LineString",
        "coordinates": [
          [
            91.2644041,
            23.4354713
          ],
          [
            91.2654947,
            23.4359816
          ]
        ]
      },
      "type": "Feature",
      "properties": {
        "name": null,
        "type": "unclassified",
        "slope": 62.97940931945416,
        "sun_diff": 1.761295058276744,
        "length": 124.93800794359727
      }
    },
    {
      "geometry": {
        "type": "LineString",
        "coordinates": [
          [
            91.2054276,
            23.381451
          ],
          [
            91.2042153,
            23.3809217
          ]
        ]
      },
      "type": "Feature",
      "properties": {
        "name": null,
        "type": "unclassified",
        "slope": 64.56112763475878,
        "sun_diff": 0.1795767429721309,
        "length": 137.06004479841278
      }
    },
    {
      "geometry": {
        "type": "LineString",
        "coordinates": [
          [
            91.2529832,
            23.3993679
          ],
          [
            91.2540078,
            23.3997569
          ]
        ]
      },
      "type": "Feature",
      "properties": {
        "name": null,
        "type": "secondary",
        "slope": 67.52594288749913,
        "sun_diff": 2.78523850976822,
        "length": 113.18967569626028
      }
    },
    {
      "geometry": {
        "type": "LineString",
        "coordinates": [
          [
            91.2559547,
            23.3997877
          ],
          [
            91.2580739,
            23.3989371
          ]
        ]
      },
      "type": "Feature",
      "properties": {
        "name": null,
        "type": "secondary",
        "slope": 113.62188441762481,
        "sun_diff": 1.6367518640182936,
        "length": 236.11698062123546
      }
    },
    {
      "geometry": {
        "type": "LineString",
        "coordinates": [
          [
            91.2350017,
            23.4125025
          ],
          [
            91.2340701,
            23.4120727
          ]
        ]
      },
      "type": "Feature",
      "properties": {
        "name": null,
        "type": "unclassified",
        "slope": 63.30914900221401,
        "sun_diff": 1.4315553755168935,
        "length": 106.43151960501943
      }
    },
    {
      "geometry": {
        "type": "LineString",
        "coordinates": [
          [
            91.2778538,
            23.3787825
          ],
          [
            91.2788131,
            23.3791485
          ]
        ]
      },
      "type": "Feature",
      "properties": {
        "name": "Birahimpur to India Road",
        "type": "unclassified",
        "slope": 67.42960373425439,
        "sun_diff": 2.6888993565234784,
        "length": 106.06625748796613
      }
    },
    {
      "geometry": {
        "type": "LineString",
        "coordinates": [
          [
            91.3181287,
            23.3565879
          ],
          [
            91.3167661,
            23.3559821
          ]
        ]
      },
      "type": "Feature",
      "properties": {
        "name": null,
        "type": "unclassified",
        "slope": 64.16035579020559,
        "sun_diff": 0.5803485875253216,
        "length": 154.5997439287291
      }
    },
    {
      "geometry": {
        "type": "LineString",
        "coordinates": [
          [
            91.2383839,
            23.3236785
          ],
          [
            91.2392852,
            23.3233041
          ]
        ]
      },
      "type": "Feature",
      "properties": {
        "name": null,
        "type": "residential",
        "slope": 114.34032042989497,
        "sun_diff": 0.89966943531401,
        "length": 101.04047476910921
      }
    },
    {
      "geometry": {
        "type": "LineString",
        "coordinates": [
          [
            91.2765866,
            23.4888373
          ],
          [
            91.2756532,
            23.4892161
          ]
        ]
      },
      "type": "Feature",
      "properties": {
        "name": null,
        "type": "tertiary",
        "slope": 113.86917428000186,
        "sun_diff": 1.408217701102103,
        "length": 104.12442327201434
      }
    },
    {
      "geometry": {
        "type": "LineString",
        "coordinates": [
          [
            91.2739259,
            23.4999607
          ],
          [
            91.2750363,
            23.500433
          ]
        ]
      },
      "type": "Feature",
      "properties": {
        "name": null,
        "type": "tertiary",
        "slope": 65.11755618518677,
        "sun_diff": 0.3956211672950758,
        "length": 124.85548648147827
      }
    },
    {
      "geometry": {
        "type": "LineString",
        "coordinates": [
          [
            91.2769246,
            23.4885076
          ],
          [
            91.2779653,
            23.4889062
          ]
        ]
      },
      "type": "Feature",
      "properties": {
        "name": null,
        "type": "tertiary",
        "slope": 67.33379145034624,
        "sun_diff": 2.6118564324545446,
        "length": 115.05099484258132
      }
    },
    {
      "geometry": {
        "type": "LineString",
        "coordinates": [
          [
            91.3238767,
            23.4940744
          ],
          [
            91.3226509,
            23.4945639
          ]
        ]
      },
      "type": "Feature",
      "properties": {
        "name": null,
        "type": "tertiary",
        "slope": 113.52970719867352,
        "sun_diff": 1.74768478243044,
        "length": 136.3821316270408
      }
    },
    {
      "geometry": {
        "type": "LineString",
        "coordinates": [
          [
            91.1213337,
            23.5232957
          ],
          [
            91.1201976,
            23.5237839
          ]
        ]
      },
      "type": "Feature",
      "properties": {
        "name": null,
        "type": "residential",
        "slope": 115.11080845769936,
        "sun_diff": 0.16658352340459714,
        "length": 127.96016650091032
      }
    },
    {
      "geometry": {
        "type": "LineString",
        "coordinates": [
          [
            91.0858615,
            23.5441636
          ],
          [
            91.084755,
            23.5436658
          ]
        ]
      },
      "type": "Feature",
      "properties": {
        "name": null,
        "type": "unclassified",
        "slope": 63.861055122285535,
        "sun_diff": 0.8608798956061605,
        "length": 125.6842420902322
      }
    },
    {
      "geometry": {
        "type": "LineString",
        "coordinates": [
          [
            91.1643306,
            23.4229585
          ],
          [
            91.1655688,
            23.4224011
          ]
        ]
      },
      "type": "Feature",
      "properties": {
        "name": null,
        "type": "trunk",
        "slope": 116.13233713265052,
        "sun_diff": 0.8737008510074133,
        "length": 140.76507132177625
      }
    },
    {
      "geometry": {
        "type": "LineString",
        "coordinates": [
          [
            91.1655688,
            23.4224011
          ],
          [
            91.1674693,
            23.4215177
          ]
        ]
      },
      "type": "Feature",
      "properties": {
        "name": null,
        "type": "trunk",
        "slope": 116.8650913371188,
        "sun_diff": 1.606455055475692,
        "length": 217.44206654986246
      }
    },
    {
      "geometry": {
        "type": "LineString",
        "coordinates": [
          [
            91.1680879,
            23.4212245
          ],
          [
            91.1705224,
            23.4200559
          ]
        ]
      },
      "type": "Feature",
      "properties": {
        "name": null,
        "type": "trunk",
        "slope": 117.61464130961133,
        "sun_diff": 2.356005027968223,
        "length": 280.42379390181793
      }
    },
    {
      "geometry": {
        "type": "LineString",
        "coordinates": [
          [
            91.1705224,
            23.4200559
          ],
          [
            91.1720582,
            23.4193176
          ]
        ]
      },
      "type": "Feature",
      "properties": {
        "name": null,
        "type": "trunk",
        "slope": 117.6493172599051,
        "sun_diff": 2.3906809782619973,
        "length": 176.96212311393978
      }
    },
    {
      "geometry": {
        "type": "LineString",
        "coordinates": [
          [
            91.1654237,
            23.4223377
          ],
          [
            91.1663653,
            23.421886
          ]
        ]
      },
      "type": "Feature",
      "properties": {
        "name": "\u09a2\u09be\u0995\u09be-\u099a\u099f\u09cd\u099f\u0997\u09cd\u09b0\u09be\u09ae \u09ae\u09b9\u09be\u09b8\u09dc\u0995",
        "type": "trunk",
        "slope": 117.60020587388766,
        "sun_diff": 2.3415695922445536,
        "length": 108.44492325401222
      }
    },
    {
      "geometry": {
        "type": "LineString",
        "coordinates": [
          [
            91.1663653,
            23.421886
          ],
          [
            91.1673853,
            23.4214197
          ]
        ]
      },
      "type": "Feature",
      "properties": {
        "name": "\u09a2\u09be\u0995\u09be-\u099a\u099f\u09cd\u099f\u0997\u09cd\u09b0\u09be\u09ae \u09ae\u09b9\u09be\u09b8\u09dc\u0995",
        "type": "trunk",
        "slope": 116.48276143094893,
        "sun_diff": 1.22412514930582,
        "length": 116.31100952306885
      }
    },
    {
      "geometry": {
        "type": "LineString",
        "coordinates": [
          [
            91.1673853,
            23.4214197
          ],
          [
            91.1684547,
            23.4209054
          ]
        ]
      },
      "type": "Feature",
      "properties": {
        "name": "\u09a2\u09be\u0995\u09be-\u099a\u099f\u09cd\u099f\u0997\u09cd\u09b0\u09be\u09ae \u09ae\u09b9\u09be\u09b8\u09dc\u0995",
        "type": "trunk",
        "slope": 117.65926188066521,
        "sun_diff": 2.4006255990221064,
        "length": 123.23112413633515
      }
    },
    {
      "geometry": {
        "type": "LineString",
        "coordinates": [
          [
            91.1684547,
            23.4209054
          ],
          [
            91.1704025,
            23.4199912
          ]
        ]
      },
      "type": "Feature",
      "properties": {
        "name": "\u09a2\u09be\u0995\u09be-\u099a\u099f\u09cd\u099f\u0997\u09cd\u09b0\u09be\u09ae \u09ae\u09b9\u09be\u09b8\u09dc\u0995",
        "type": "trunk",
        "slope": 117.08922198534742,
        "sun_diff": 1.8305857037043154,
        "length": 223.30055502645595
      }
    },
    {
      "geometry": {
        "type": "LineString",
        "coordinates": [
          [
            91.1704025,
            23.4199912
          ],
          [
            91.1713709,
            23.4195394
          ]
        ]
      },
      "type": "Feature",
      "properties": {
        "name": "\u09a2\u09be\u0995\u09be-\u099a\u099f\u09cd\u099f\u0997\u09cd\u09b0\u09be\u09ae \u09ae\u09b9\u09be\u09b8\u09dc\u0995",
        "type": "trunk",
        "slope": 116.95003317389799,
        "sun_diff": 1.691396892254886,
        "length": 110.882825397971
      }
    },
    {
      "geometry": {
        "type": "LineString",
        "coordinates": [
          [
            91.1709648,
            23.4196243
          ],
          [
            91.1693722,
            23.4203593
          ]
        ]
      },
      "type": "Feature",
      "properties": {
        "name": "\u09a2\u09be\u0995\u09be-\u099a\u099f\u09cd\u099f\u0997\u09cd\u09b0\u09be\u09ae \u09ae\u09b9\u09be\u09b8\u09dc\u0995",
        "type": "trunk",
        "slope": 116.69990021670642,
        "sun_diff": 1.4412639350633185,
        "length": 181.95178046413406
      }
    },
    {
      "geometry": {
        "type": "LineString",
        "coordinates": [
          [
            91.1688376,
            23.4206155
          ],
          [
            91.1673155,
            23.4213312
          ]
        ]
      },
      "type": "Feature",
      "properties": {
        "name": "\u09a2\u09be\u0995\u09be-\u099a\u099f\u09cd\u099f\u0997\u09cd\u09b0\u09be\u09ae \u09ae\u09b9\u09be\u09b8\u09dc\u0995",
        "type": "trunk",
        "slope": 117.13178675402662,
        "sun_diff": 1.8731504723835144,
        "length": 174.56272909459435
      }
    },
    {
      "geometry": {
        "type": "LineString",
        "coordinates": [
          [
            91.1673155,
            23.4213312
          ],
          [
            91.1650169,
            23.4224179
          ]
        ]
      },
      "type": "Feature",
      "properties": {
        "name": "\u09a2\u09be\u0995\u09be-\u099a\u099f\u09cd\u099f\u0997\u09cd\u09b0\u09be\u09ae \u09ae\u09b9\u09be\u09b8\u09dc\u0995",
        "type": "trunk",
        "slope": 117.2584583461684,
        "sun_diff": 1.99982206452529,
        "length": 263.9137389561961
      }
    },
    {
      "geometry": {
        "type": "LineString",
        "coordinates": [
          [
            91.1717552,
            23.4191412
          ],
          [
            91.170429,
            23.4197652
          ]
        ]
      },
      "type": "Feature",
      "properties": {
        "name": null,
        "type": "trunk",
        "slope": 117.14692078562578,
        "sun_diff": 1.8882845039826748,
        "length": 152.1182023006816
      }
    },
    {
      "geometry": {
        "type": "LineString",
        "coordinates": [
          [
            91.170429,
            23.4197652
          ],
          [
            91.1691117,
            23.4203714
          ]
        ]
      },
      "type": "Feature",
      "properties": {
        "name": null,
        "type": "trunk",
        "slope": 116.63379517548566,
        "sun_diff": 1.3751588938425527,
        "length": 150.4119823110591
      }
    },
    {
      "geometry": {
        "type": "LineString",
        "coordinates": [
          [
            91.1691117,
            23.4203714
          ],
          [
            91.1675351,
            23.4211195
          ]
        ]
      },
      "type": "Feature",
      "properties": {
        "name": null,
        "type": "trunk",
        "slope": 117.3438250128388,
        "sun_diff": 2.0851887311957,
        "length": 181.1581742186066
      }
    },
    {
      "geometry": {
        "type": "LineString",
        "coordinates": [
          [
            91.1674873,
            23.4211448
          ],
          [
            91.1654583,
            23.4220998
          ]
        ]
      },
      "type": "Feature",
      "properties": {
        "name": null,
        "type": "trunk",
        "slope": 117.15513967481272,
        "sun_diff": 1.8965033931696098,
        "length": 232.74422951317842
      }
    },
    {
      "geometry": {
        "type": "LineString",
        "coordinates": [
          [
            91.2358821,
            23.5457485
          ],
          [
            91.2368971,
            23.5452508
          ]
        ]
      },
      "type": "Feature",
      "properties": {
        "name": null,
        "type": "unclassified",
        "slope": 118.14125729002973,
        "sun_diff": 2.8638653089257673,
        "length": 117.37382316564936
      }
    },
    {
      "geometry": {
        "type": "LineString",
        "coordinates": [
          [
            91.1947176,
            23.6196558
          ],
          [
            91.1961271,
            23.6190422
          ]
        ]
      },
      "type": "Feature",
      "properties": {
        "name": null,
        "type": "residential",
        "slope": 115.41397347619076,
        "sun_diff": 0.11770285222088717,
        "length": 159.03444461506203
      }
    },
    {
      "geometry": {
        "type": "LineString",
        "coordinates": [
          [
            91.1738739,
            23.605331
          ],
          [
            91.1752962,
            23.6059226
          ]
        ]
      },
      "type": "Feature",
      "properties": {
        "name": null,
        "type": "residential",
        "slope": 65.58526346206258,
        "sun_diff": 0.8822070870367895,
        "length": 159.20043584405116
      }
    },
    {
      "geometry": {
        "type": "LineString",
        "coordinates": [
          [
            91.1912173,
            23.5512783
          ],
          [
            91.1923385,
            23.5517602
          ]
        ]
      },
      "type": "Feature",
      "properties": {
        "name": null,
        "type": "residential",
        "slope": 64.87981201295653,
        "sun_diff": 0.17675563793073934,
        "length": 126.26479382792773
      }
    },
    {
      "geometry": {
        "type": "LineString",
        "coordinates": [
          [
            91.2877929,
            23.4938014
          ],
          [
            91.2861299,
            23.4931224
          ]
        ]
      },
      "type": "Feature",
      "properties": {
        "name": null,
        "type": "trunk",
        "slope": 66.00127756496977,
        "sun_diff": 1.2793425470780733,
        "length": 185.6943019772319
      }
    },
    {
      "geometry": {
        "type": "LineString",
        "coordinates": [
          [
            91.1816353,
            23.4140839
          ],
          [
            91.1827656,
            23.4135954
          ]
        ]
      },
      "type": "Feature",
      "properties": {
        "name": "\u09a2\u09be\u0995\u09be-\u099a\u099f\u09cd\u099f\u0997\u09cd\u09b0\u09be\u09ae \u09ae\u09b9\u09be\u09b8\u09dc\u0995",
        "type": "trunk",
        "slope": 115.21880619356321,
        "sun_diff": 0.03983008807989563,
        "length": 127.52574255000114
      }
    },
    {
      "geometry": {
        "type": "LineString",
        "coordinates": [
          [
            91.1827013,
            23.4134821
          ],
          [
            91.1818027,
            23.4138661
          ]
        ]
      },
      "type": "Feature",
      "properties": {
        "name": "\u09a2\u09be\u0995\u09be-\u099a\u099f\u09cd\u099f\u0997\u09cd\u09b0\u09be\u09ae \u09ae\u09b9\u09be\u09b8\u09dc\u0995",
        "type": "trunk",
        "slope": 114.97025887080062,
        "sun_diff": 0.2883774108424859,
        "length": 101.1785709695498
      }
    },
    {
      "geometry": {
        "type": "LineString",
        "coordinates": [
          [
            91.3104264,
            23.5199389
          ],
          [
            91.3115039,
            23.5203928
          ]
        ]
      },
      "type": "Feature",
      "properties": {
        "name": null,
        "type": "unclassified",
        "slope": 65.32488032018867,
        "sun_diff": 0.6029453022969733,
        "length": 120.93560815612801
      }
    },
    {
      "geometry": {
        "type": "LineString",
        "coordinates": [
          [
            91.1580796,
            23.4258243
          ],
          [
            91.1590831,
            23.4253539
          ]
        ]
      },
      "type": "Feature",
      "properties": {
        "name": "\u09a2\u09be\u0995\u09be\u2013\u0995\u09c1\u09ae\u09bf\u09b2\u09cd\u09b2\u09be \u09ae\u09b9\u09be\u09b8\u09a1\u09bc\u0995",
        "type": "trunk",
        "slope": 117.06092106600539,
        "sun_diff": 1.8022847843622856,
        "length": 115.01013925806036
      }
    },
    {
      "geometry": {
        "type": "LineString",
        "coordinates": [
          [
            91.1595188,
            23.4251496
          ],
          [
            91.1608113,
            23.4245442
          ]
        ]
      },
      "type": "Feature",
      "properties": {
        "name": "\u09a2\u09be\u0995\u09be\u2013\u0995\u09c1\u09ae\u09bf\u09b2\u09cd\u09b2\u09be \u09ae\u09b9\u09be\u09b8\u09a1\u09bc\u0995",
        "type": "trunk",
        "slope": 117.04271372399438,
        "sun_diff": 1.7840774423512755,
        "length": 148.10895262644996
      }
    },
    {
      "geometry": {
        "type": "LineString",
        "coordinates": [
          [
            91.1610458,
            23.4244331
          ],
          [
            91.1628516,
            23.4235807
          ]
        ]
      },
      "type": "Feature",
      "properties": {
        "name": "\u09a2\u09be\u0995\u09be\u2013\u0995\u09c1\u09ae\u09bf\u09b2\u09cd\u09b2\u09be \u09ae\u09b9\u09be\u09b8\u09a1\u09bc\u0995",
        "type": "trunk",
        "slope": 117.22255845779347,
        "sun_diff": 1.963922176150362,
        "length": 207.26301852859962
      }
    },
    {
      "geometry": {
        "type": "LineString",
        "coordinates": [
          [
            91.1694445,
            23.4564406
          ],
          [
            91.1706447,
            23.4569557
          ]
        ]
      },
      "type": "Feature",
      "properties": {
        "name": null,
        "type": "residential",
        "slope": 64.92787248806712,
        "sun_diff": 0.20593747017542796,
        "length": 135.2056238081725
      }
    },
    {
      "geometry": {
        "type": "LineString",
        "coordinates": [
          [
            91.1032302,
            23.5243607
          ],
          [
            91.1042387,
            23.5247886
          ]
        ]
      },
      "type": "Feature",
      "properties": {
        "name": null,
        "type": "tertiary",
        "slope": 65.16746293132985,
        "sun_diff": 0.44552791343815557,
        "length": 113.33092872390404
      }
    },
    {
      "geometry": {
        "type": "LineString",
        "coordinates": [
          [
            91.1020178,
            23.3630023
          ],
          [
            91.1001134,
            23.3621159
          ]
        ]
      },
      "type": "Feature",
      "properties": {
        "name": null,
        "type": "residential",
        "slope": 63.1143062086648,
        "sun_diff": 1.626398169066107,
        "length": 218.0257430912799
      }
    },
    {
      "geometry": {
        "type": "LineString",
        "coordinates": [
          [
            91.0995635,
            23.3618623
          ],
          [
            91.0983559,
            23.3612885
          ]
        ]
      },
      "type": "Feature",
      "properties": {
        "name": null,
        "type": "residential",
        "slope": 62.63446920153504,
        "sun_diff": 2.1062351761958666,
        "length": 138.84782916192577
      }
    }
  ]
}