{
  "type": "FeatureCollection",
  "features": [
    {
      "geometry": {
        "type": "LineString",
        "coordinates": [
          [
            113.545724,
            22.2133905
          ],
          [
            113.5442587,
            22.212799
          ]
        ]
      },
      "type": "Feature",
      "properties": {
        "name": "\u53f0\u5c71\u65b0\u57ce\u5e02\u7b2c\u4e00\u8857 Rua Um da Cidade Nova de T`oi S\u00e1n",
        "type": "residential",
        "slope": 66.44129864887563,
        "sun_diff": 1.484350482022137,
        "length": 164.60904812962116
      }
    },
    {
      "geometry": {
        "type": "LineString",
        "coordinates": [
          [
            113.5526172,
            22.1893587
          ],
          [
            113.5536438,
            22.1897464
          ]
        ]
      },
      "type": "Feature",
      "properties": {
        "name": "\u7f85\u99ac\u8857 Rua de Roma",
        "type": "residential",
        "slope": 67.81135151001507,
        "sun_diff": 2.8544033431615787,
        "length": 114.18778943673719
      }
    },
    {
      "geometry": {
        "type": "LineString",
        "coordinates": [
          [
            113.5539258,
            22.189093
          ],
          [
            113.552919,
            22.1887129
          ]
        ]
      },
      "type": "Feature",
      "properties": {
        "name": "\u502b\u6566\u8857 Rua de Londres",
        "type": "residential",
        "slope": 67.81795129601963,
        "sun_diff": 2.8610031291661357,
        "length": 111.98075464628553
      }
    },
    {
      "geometry": {
        "type": "LineString",
        "coordinates": [
          [
            113.5533624,
            22.1904019
          ],
          [
            113.5523564,
            22.1900221
          ]
        ]
      },
      "type": "Feature",
      "properties": {
        "name": "\u5e03\u9b6f\u585e\u723e\u8857 Rua de Bruxelas",
        "type": "residential",
        "slope": 67.81765774175949,
        "sun_diff": 2.8607095749059965,
        "length": 111.8909661225615
      }
    },
    {
      "geometry": {
        "type": "LineString",
        "coordinates": [
          [
            113.5519594,
            22.1906331
          ],
          [
            113.5530968,
            22.1910626
          ]
        ]
      },
      "type": "Feature",
      "properties": {
        "name": "\u5df4\u9ece\u8857 Rua de Paris",
        "type": "residential",
        "slope": 67.81322114099856,
        "sun_diff": 2.856272974145071,
        "length": 126.5091202870472
      }
    },
    {
      "geometry": {
        "type": "LineString",
        "coordinates": [
          [
            113.5464966,
            22.2127535
          ],
          [
            113.5475119,
            22.2131355
          ]
        ]
      },
      "type": "Feature",
      "properties": {
        "name": "\u53f0\u5c71\u65b0\u57ce\u5e02\u7b2c\u4e09\u8857 Rua Tr\u00eas da Cidade Nova de T`oi S\u00e1n",
        "type": "residential",
        "slope": 67.88291580558061,
        "sun_diff": 2.9259676387271156,
        "length": 112.85468226300996
      }
    },
    {
      "geometry": {
        "type": "LineString",
        "coordinates": [
          [
            113.5498163,
            22.1898237
          ],
          [
            113.5487951,
            22.189438
          ]
        ]
      },
      "type": "Feature",
      "properties": {
        "name": "\u8056\u5fb7\u502b\u8857 Rua Cidade de Santar\u00e9m",
        "type": "residential",
        "slope": 67.80935207224067,
        "sun_diff": 2.8524039053871775,
        "length": 113.58875038829082
      }
    },
    {
      "geometry": {
        "type": "LineString",
        "coordinates": [
          [
            113.550989,
            22.1872212
          ],
          [
            113.5499315,
            22.1868218
          ]
        ]
      },
      "type": "Feature",
      "properties": {
        "name": "\u67cf\u5609\u8857 Rua Cidade de Braga",
        "type": "residential",
        "slope": 67.81023956179132,
        "sun_diff": 2.853291394937827,
        "length": 117.62786584994086
      }
    },
    {
      "geometry": {
        "type": "LineString",
        "coordinates": [
          [
            113.5501285,
            22.1891806
          ],
          [
            113.5490844,
            22.1887863
          ]
        ]
      },
      "type": "Feature",
      "properties": {
        "name": "\u98db\u5357\u7b2c\u8857 Rua Francisco H. Fernandes",
        "type": "residential",
        "slope": 67.811943313135,
        "sun_diff": 2.85499514628151,
        "length": 116.13432596126648
      }
    },
    {
      "geometry": {
        "type": "LineString",
        "coordinates": [
          [
            113.5493499,
            22.1881248
          ],
          [
            113.5504139,
            22.1885266
          ]
        ]
      },
      "type": "Feature",
      "properties": {
        "name": "\u79d1\u82f1\u5e03\u62c9\u8857 Rua Cidade de Coimbra",
        "type": "residential",
        "slope": 67.81273585618698,
        "sun_diff": 2.855787689333482,
        "length": 118.34762413468613
      }
    },
    {
      "geometry": {
        "type": "LineString",
        "coordinates": [
          [
            113.5355507,
            22.2129754
          ],
          [
            113.5346594,
            22.2125807
          ]
        ]
      },
      "type": "Feature",
      "properties": {
        "name": "\u5de5\u696d\u5712\u8857 Rua do Parque Industrial",
        "type": "residential",
        "slope": 64.436593554821,
        "sun_diff": 0.5203546120324916,
        "length": 101.74132110524147
      }
    },
    {
      "geometry": {
        "type": "LineString",
        "coordinates": [
          [
            113.5521754,
            22.1869264
          ],
          [
            113.5532145,
            22.1873188
          ]
        ]
      },
      "type": "Feature",
      "properties": {
        "name": "\u5b6b\u9038\u4ed9\u5927\u99ac\u8def Avenida Dr. Sun Yat-Sen",
        "type": "primary",
        "slope": 67.81275358865028,
        "sun_diff": 2.855805421796788,
        "length": 115.57899854787777
      }
    },
    {
      "geometry": {
        "type": "LineString",
        "coordinates": [
          [
            113.5502029,
            22.1861815
          ],
          [
            113.5513144,
            22.1866013
          ]
        ]
      },
      "type": "Feature",
      "properties": {
        "name": "\u5b6b\u9038\u4ed9\u5927\u99ac\u8def Avenida Dr. Sun Yat-Sen",
        "type": "primary",
        "slope": 67.81002728464509,
        "sun_diff": 2.8530791177915944,
        "length": 123.63508508566538
      }
    },
    {
      "geometry": {
        "type": "LineString",
        "coordinates": [
          [
            113.5531207,
            22.2035622
          ],
          [
            113.5540413,
            22.2031379
          ]
        ]
      },
      "type": "Feature",
      "properties": {
        "name": "\u99ac\u4ea4\u77f3\u70ae\u53f0\u99ac\u8def Estrada de D. Maria II",
        "type": "tertiary",
        "slope": 116.46446870780056,
        "sun_diff": 1.4226636115486713,
        "length": 105.90268025312777
      }
    },
    {
      "geometry": {
        "type": "LineString",
        "coordinates": [
          [
            113.5541859,
            22.1884285
          ],
          [
            113.5532078,
            22.1880591
          ]
        ]
      },
      "type": "Feature",
      "properties": {
        "name": "\u99ac\u5fb7\u91cc\u8857 Rua de Madrid",
        "type": "residential",
        "slope": 67.81071140622396,
        "sun_diff": 2.8537632393704655,
        "length": 108.7947294335028
      }
    },
    {
      "geometry": {
        "type": "LineString",
        "coordinates": [
          [
            113.5528717,
            22.1879322
          ],
          [
            113.5518899,
            22.1875614
          ]
        ]
      },
      "type": "Feature",
      "properties": {
        "name": "\u99ac\u5fb7\u91cc\u8857 Rua de Madrid",
        "type": "residential",
        "slope": 67.81064096162723,
        "sun_diff": 2.8536927947737354,
        "length": 109.20672414585204
      }
    },
    {
      "geometry": {
        "type": "LineString",
        "coordinates": [
          [
            113.5545596,
            22.1877205
          ],
          [
            113.5530311,
            22.1871433
          ]
        ]
      },
      "type": "Feature",
      "properties": {
        "name": "\u5b6b\u9038\u4ed9\u5927\u99ac\u8def Avenida Dr. Sun Yat-Sen",
        "type": "primary",
        "slope": 67.81327565934885,
        "sun_diff": 2.8563274924953532,
        "length": 170.0139936380547
      }
    },
    {
      "geometry": {
        "type": "LineString",
        "coordinates": [
          [
            113.5512394,
            22.1864666
          ],
          [
            113.5502565,
            22.1860954
          ]
        ]
      },
      "type": "Feature",
      "properties": {
        "name": "\u5b6b\u9038\u4ed9\u5927\u99ac\u8def Avenida Dr. Sun Yat-Sen",
        "type": "primary",
        "slope": 67.81168346033965,
        "sun_diff": 2.854735293486158,
        "length": 109.32940774760357
      }
    },
    {
      "geometry": {
        "type": "LineString",
        "coordinates": [
          [
            113.5521577,
            22.1869664
          ],
          [
            113.5532657,
            22.1873848
          ]
        ]
      },
      "type": "Feature",
      "properties": {
        "name": null,
        "type": "service",
        "slope": 67.81365472971646,
        "sun_diff": 2.8567065628629678,
        "length": 123.24190066689275
      }
    },
    {
      "geometry": {
        "type": "LineString",
        "coordinates": [
          [
            113.5536158,
            22.1874704
          ],
          [
            113.5545194,
            22.1878116
          ]
        ]
      },
      "type": "Feature",
      "properties": {
        "name": "\u5b6b\u9038\u4ed9\u5927\u99ac\u8def Avenida Dr. Sun Yat-Sen",
        "type": "primary",
        "slope": 67.814475644011,
        "sun_diff": 2.857527477157504,
        "length": 100.50574569025082
      }
    },
    {
      "geometry": {
        "type": "LineString",
        "coordinates": [
          [
            113.5515185,
            22.1911805
          ],
          [
            113.5504561,
            22.1907793
          ]
        ]
      },
      "type": "Feature",
      "properties": {
        "name": "\u6822\u6797\u8857 Rua de Berlim",
        "type": "residential",
        "slope": 67.8122042963081,
        "sun_diff": 2.8552561294546024,
        "length": 118.16792027495109
      }
    },
    {
      "geometry": {
        "type": "LineString",
        "coordinates": [
          [
            113.5389921,
            22.1834056
          ],
          [
            113.5380107,
            22.1837973
          ]
        ]
      },
      "type": "Feature",
      "properties": {
        "name": "\u897f\u7063\u6e56\u8857 Rua do Lago Sai Van",
        "type": "unclassified",
        "slope": 113.31747420906092,
        "sun_diff": 1.7243308871909733,
        "length": 110.07064102033894
      }
    },
    {
      "geometry": {
        "type": "LineString",
        "coordinates": [
          [
            113.5513353,
            22.1916987
          ],
          [
            113.5501507,
            22.1912494
          ]
        ]
      },
      "type": "Feature",
      "properties": {
        "name": "\u53cb\u8abc\u5927\u99ac\u8def Avenida da Amizade",
        "type": "primary",
        "slope": 67.7247261143618,
        "sun_diff": 2.767777947508307,
        "length": 131.8416904677919
      }
    },
    {
      "geometry": {
        "type": "LineString",
        "coordinates": [
          [
            113.5471507,
            22.1901793
          ],
          [
            113.5483513,
            22.1906346
          ]
        ]
      },
      "type": "Feature",
      "properties": {
        "name": "\u53cb\u8abc\u5927\u99ac\u8def Avenida da Amizade",
        "type": "primary",
        "slope": 67.72783941437936,
        "sun_diff": 2.770891247525867,
        "length": 133.62041193000718
      }
    },
    {
      "geometry": {
        "type": "LineString",
        "coordinates": [
          [
            113.5496207,
            22.1874672
          ],
          [
            113.5507126,
            22.1878796
          ]
        ]
      },
      "type": "Feature",
      "properties": {
        "name": "\u6ce2\u723e\u5716\u8857 Rua Cidade do Porto",
        "type": "residential",
        "slope": 67.80971470816866,
        "sun_diff": 2.8527665413151624,
        "length": 121.4540876631498
      }
    },
    {
      "geometry": {
        "type": "LineString",
        "coordinates": [
          [
            113.5466686,
            22.1894428
          ],
          [
            113.5452986,
            22.1889251
          ]
        ]
      },
      "type": "Feature",
      "properties": {
        "name": "\u4ed9\u5fb7\u9e97\u8857 Rua Cidade de Sintra",
        "type": "primary",
        "slope": 67.79933020068009,
        "sun_diff": 2.8423820338265955,
        "length": 152.3973753670455
      }
    },
    {
      "geometry": {
        "type": "LineString",
        "coordinates": [
          [
            113.552051,
            22.1899066
          ],
          [
            113.5510255,
            22.1895182
          ]
        ]
      },
      "type": "Feature",
      "properties": {
        "name": "\u5e03\u9b6f\u585e\u723e\u8857 Rua de Bruxelas",
        "type": "residential",
        "slope": 67.75370275014598,
        "sun_diff": 2.7967545832924827,
        "length": 114.1122391374861
      }
    },
    {
      "geometry": {
        "type": "LineString",
        "coordinates": [
          [
            113.5513109,
            22.1888654
          ],
          [
            113.5523252,
            22.1892485
          ]
        ]
      },
      "type": "Feature",
      "properties": {
        "name": "\u7f85\u99ac\u8857 Rua de Roma",
        "type": "residential",
        "slope": 67.80906104130432,
        "sun_diff": 2.8521128744508246,
        "length": 112.82190947865935
      }
    },
    {
      "geometry": {
        "type": "LineString",
        "coordinates": [
          [
            113.5525981,
            22.1885917
          ],
          [
            113.5516008,
            22.188215
          ]
        ]
      },
      "type": "Feature",
      "properties": {
        "name": "\u502b\u6566\u8857 Rua de Londres",
        "type": "residential",
        "slope": 67.80809768774631,
        "sun_diff": 2.851149520892818,
        "length": 110.93229710998241
      }
    },
    {
      "geometry": {
        "type": "LineString",
        "coordinates": [
          [
            113.5502347,
            22.1862401
          ],
          [
            113.5513577,
            22.1866642
          ]
        ]
      },
      "type": "Feature",
      "properties": {
        "name": null,
        "type": "service",
        "slope": 67.81206904238118,
        "sun_diff": 2.855120875527689,
        "length": 124.91239066961343
      }
    }
  ]
}