{
  "type": "FeatureCollection",
  "features": [
    {
      "geometry": {
        "type": "LineString",
        "coordinates": [
          [
            73.9804713,
            31.7110909
          ],
          [
            73.9793041,
            31.7105244
          ]
        ]
      },
      "type": "Feature",
      "properties": {
        "name": null,
        "type": "residential",
        "slope": 60.29438356616578,
        "sun_diff": 2.4509220266808995,
        "length": 127.15637558413547
      }
    },
    {
      "geometry": {
        "type": "LineString",
        "coordinates": [
          [
            73.9892841,
            31.7121959
          ],
          [
            73.9906302,
            31.7116659
          ]
        ]
      },
      "type": "Feature",
      "properties": {
        "name": null,
        "type": "residential",
        "slope": 114.83604064755963,
        "sun_diff": 2.41815834350777,
        "length": 140.3534342038158
      }
    },
    {
      "geometry": {
        "type": "LineString",
        "coordinates": [
          [
            73.9915407,
            31.710422
          ],
          [
            73.992704,
            31.7099024
          ]
        ]
      },
      "type": "Feature",
      "properties": {
        "name": null,
        "type": "residential",
        "slope": 117.70117369877079,
        "sun_diff": 0.4469747077033901,
        "length": 124.3274785669559
      }
    }
  ]
}